{"type":"FeatureCollection","features":[{"type":"Feature","properties":{},"geometry":{"type":"Polygon","coordinates":[[[118,30],[140,30],[140,45],[118,45],[118,30]],[[126.387,34.83],[126.388,34.837],[126.397,34.838],[126.4,34.844],[126.412,34.843],[126.405,34.849],[126.407,34.852],[126.401,34.861],[126.403,34.864],[126.395,34.869],[126.402,34.88],[126.392,34.883],[126.386,34.878],[126.39,34.885],[126.389,34.889],[126.394,34.895],[126.391,34.9],[126.4,34.899],[126.405,34.911],[126.391,34.922],[126.389,34.928],[126.398,34.935],[126.39,34.939],[126.387,34.945],[126.394,34.962],[126.39,34.967],[126.379,34.971],[126.38,34.988],[126.373,34.99],[126.374,34.999],[126.368,34.996],[126.366,34.986],[126.371,34.973],[126.361,34.972],[126.36,34.969],[126.361,34.963],[126.368,34.963],[126.375,34.956],[126.366,34.943],[126.375,34.943],[126.367,34.933],[126.369,34.92],[126.353,34.922],[126.351,34.917],[126.343,34.915],[126.329,34.916],[126.328,34.925],[126.33,34.927],[126.326,34.931],[126.322,34.928],[126.319,34.932],[126.311,34.926],[126.307,34.928],[126.306,34.934],[126.317,34.937],[126.321,34.944],[126.309,34.949],[126.307,34.956],[126.3,34.958],[126.295,34.965],[126.3,34.977],[126.304,34.977],[126.305,34.985],[126.314,34.989],[126.315,34.986],[126.31,34.976],[126.316,34.975],[126.319,34.981],[126.322,34.973],[126.327,34.972],[126.328,34.967],[126.348,34.976],[126.351,34.982],[126.358,34.984],[126.358,34.993],[126.34,34.997],[126.335,34.992],[126.333,34.994],[126.389,35.025],[126.388,35.036],[126.381,35.048],[126.376,35.044],[126.371,35.047],[126.358,35.042],[126.358,35.039],[126.352,35.039],[126.347,35.049],[126.347,35.052],[126.352,35.052],[126.349,35.056],[126.331,35.061],[126.34,35.065],[126.343,35.072],[126.332,35.088],[126.319,35.088],[126.316,35.084],[126.318,35.078],[126.312,35.076],[126.318,35.07],[126.305,35.066],[126.301,35.061],[126.311,35.06],[126.315,35.055],[126.303,35.044],[126.295,35.041],[126.302,35.047],[126.291,35.049],[126.295,35.055],[126.285,35.062],[126.277,35.054],[126.26,35.053],[126.264,35.042],[126.274,35.038],[126.274,35.034],[126.267,35.029],[126.266,35.022],[126.256,35.013],[126.25,35.012],[126.243,35.028],[126.24,35.022],[126.241,35.019],[126.233,35.017],[126.227,35.02],[126.227,35.023],[126.232,35.026],[126.228,35.028],[126.231,35.035],[126.228,35.038],[126.235,35.044],[126.233,35.053],[126.223,35.058],[126.207,35.055],[126.204,35.057],[126.21,35.045],[126.21,35.04],[126.205,35.039],[126.199,35.052],[126.194,35.055],[126.201,35.058],[126.204,35.057],[126.201,35.062],[126.182,35.058],[126.18,35.066],[126.173,35.064],[126.167,35.072],[126.165,35.067],[126.161,35.067],[126.16,35.072],[126.163,35.074],[126.166,35.083],[126.157,35.09],[126.16,35.099],[126.173,35.106],[126.178,35.104],[126.182,35.109],[126.19,35.113],[126.21,35.103],[126.218,35.107],[126.233,35.099],[126.236,35.102],[126.25,35.097],[126.242,35.106],[126.248,35.111],[126.242,35.111],[126.24,35.108],[126.253,35.13],[126.252,35.134],[126.259,35.135],[126.257,35.14],[126.261,35.145],[126.271,35.146],[126.27,35.15],[126.274,35.151],[126.28,35.136],[126.287,35.135],[126.292,35.142],[126.318,35.131],[126.33,35.141],[126.33,35.144],[126.325,35.147],[126.326,35.15],[126.334,35.149],[126.346,35.16],[126.347,35.137],[126.343,35.131],[126.342,35.121],[126.344,35.115],[126.332,35.093],[126.344,35.092],[126.349,35.094],[126.35,35.1],[126.353,35.1],[126.351,35.095],[126.353,35.088],[126.35,35.085],[126.349,35.088],[126.343,35.086],[126.346,35.083],[126.345,35.077],[126.349,35.076],[126.351,35.08],[126.361,35.075],[126.365,35.08],[126.368,35.077],[126.364,35.075],[126.368,35.071],[126.366,35.065],[126.37,35.062],[126.382,35.077],[126.38,35.082],[126.389,35.087],[126.398,35.084],[126.39,35.082],[126.385,35.067],[126.391,35.065],[126.392,35.072],[126.398,35.077],[126.404,35.071],[126.408,35.06],[126.399,35.053],[126.403,35.05],[126.394,35.048],[126.391,35.043],[126.402,35.043],[126.399,35.034],[126.402,35.027],[126.411,35.03],[126.417,35.027],[126.426,35.028],[126.418,35.042],[126.423,35.048],[126.441,35.056],[126.452,35.073],[126.457,35.074],[126.436,35.086],[126.458,35.09],[126.465,35.1],[126.446,35.106],[126.421,35.106],[126.403,35.135],[126.396,35.134],[126.391,35.138],[126.383,35.153],[126.372,35.158],[126.366,35.168],[126.359,35.169],[126.352,35.182],[126.34,35.186],[126.344,35.19],[126.362,35.192],[126.372,35.199],[126.379,35.209],[126.377,35.211],[126.362,35.197],[126.335,35.191],[126.317,35.18],[126.307,35.178],[126.304,35.186],[126.298,35.188],[126.3,35.197],[126.314,35.21],[126.3,35.21],[126.298,35.216],[126.297,35.227],[126.307,35.251],[126.312,35.254],[126.326,35.243],[126.333,35.247],[126.326,35.247],[126.324,35.253],[126.328,35.259],[126.325,35.262],[126.332,35.267],[126.325,35.271],[126.323,35.288],[126.344,35.293],[126.358,35.289],[126.374,35.302],[126.378,35.306],[126.375,35.312],[126.379,35.32],[126.378,35.329],[126.387,35.343],[126.387,35.353],[126.392,35.356],[126.397,35.369],[126.404,35.369],[126.404,35.363],[126.407,35.366],[126.414,35.363],[126.419,35.365],[126.428,35.358],[126.444,35.356],[126.448,35.349],[126.446,35.357],[126.439,35.359],[126.44,35.361],[126.431,35.36],[126.429,35.368],[126.419,35.369],[126.411,35.376],[126.41,35.379],[126.415,35.378],[126.419,35.383],[126.408,35.381],[126.408,35.389],[126.402,35.39],[126.402,35.397],[126.408,35.401],[126.405,35.403],[126.412,35.405],[126.403,35.405],[126.414,35.417],[126.415,35.422],[126.423,35.431],[126.427,35.426],[126.444,35.431],[126.453,35.427],[126.479,35.424],[126.493,35.409],[126.49,35.395],[126.477,35.386],[126.482,35.385],[126.486,35.378],[126.497,35.373],[126.494,35.351],[126.497,35.35],[126.508,35.361],[126.513,35.362],[126.52,35.348],[126.514,35.327],[126.521,35.325],[126.524,35.314],[126.531,35.307],[126.551,35.314],[126.57,35.311],[126.585,35.301],[126.59,35.312],[126.581,35.323],[126.586,35.331],[126.595,35.329],[126.604,35.336],[126.625,35.321],[126.645,35.32],[126.647,35.324],[126.644,35.327],[126.653,35.328],[126.659,35.334],[126.66,35.344],[126.667,35.352],[126.685,35.345],[126.691,35.352],[126.699,35.35],[126.705,35.365],[126.721,35.366],[126.731,35.376],[126.732,35.383],[126.73,35.395],[126.722,35.4],[126.736,35.403],[126.749,35.415],[126.754,35.416],[126.752,35.436],[126.743,35.443],[126.739,35.45],[126.75,35.451],[126.762,35.465],[126.773,35.468],[126.814,35.469],[126.814,35.483],[126.819,35.486],[126.826,35.486],[126.831,35.48],[126.84,35.483],[126.843,35.476],[126.838,35.465],[126.84,35.462],[126.851,35.466],[126.869,35.461],[126.905,35.441],[126.897,35.436],[126.904,35.43],[126.903,35.421],[126.921,35.411],[126.917,35.402],[126.934,35.406],[126.93,35.4],[126.936,35.394],[126.955,35.397],[126.963,35.395],[126.977,35.4],[126.976,35.407],[126.971,35.418],[126.97,35.427],[126.982,35.426],[126.985,35.437],[126.994,35.44],[127.0,35.462],[127.003,35.463],[127.014,35.457],[127.024,35.463],[127.035,35.466],[127.037,35.434],[127.044,35.434],[127.052,35.427],[127.046,35.408],[127.047,35.403],[127.042,35.399],[127.027,35.4],[127.027,35.395],[127.039,35.385],[127.039,35.38],[127.046,35.377],[127.056,35.385],[127.065,35.376],[127.064,35.37],[127.07,35.366],[127.065,35.357],[127.07,35.352],[127.067,35.345],[127.07,35.34],[127.063,35.336],[127.052,35.34],[127.051,35.33],[127.043,35.322],[127.052,35.317],[127.062,35.317],[127.066,35.311],[127.079,35.311],[127.106,35.299],[127.126,35.303],[127.13,35.309],[127.145,35.309],[127.147,35.315],[127.159,35.327],[127.171,35.333],[127.173,35.33],[127.18,35.332],[127.182,35.338],[127.186,35.336],[127.183,35.33],[127.187,35.323],[127.201,35.316],[127.216,35.317],[127.216,35.33],[127.22,35.335],[127.225,35.337],[127.232,35.335],[127.236,35.329],[127.26,35.312],[127.288,35.314],[127.309,35.303],[127.324,35.306],[127.331,35.315],[127.356,35.321],[127.375,35.313],[127.384,35.303],[127.398,35.312],[127.402,35.325],[127.415,35.337],[127.424,35.352],[127.437,35.363],[127.454,35.361],[127.473,35.366],[127.486,35.358],[127.496,35.361],[127.501,35.359],[127.525,35.345],[127.531,35.337],[127.541,35.334],[127.543,35.328],[127.567,35.319],[127.577,35.309],[127.577,35.295],[127.587,35.286],[127.596,35.268],[127.61,35.262],[127.615,35.25],[127.613,35.241],[127.619,35.237],[127.621,35.223],[127.621,35.213],[127.617,35.21],[127.621,35.189],[127.632,35.175],[127.641,35.171],[127.645,35.161],[127.66,35.158],[127.694,35.132],[127.695,35.103],[127.707,35.095],[127.718,35.082],[127.737,35.078],[127.742,35.06],[127.765,35.057],[127.769,35.05],[127.772,35.029],[127.787,35.017],[127.778,34.989],[127.765,34.978],[127.76,34.967],[127.737,34.955],[127.733,34.955],[127.729,34.963],[127.731,34.955],[127.71,34.935],[127.7,34.931],[127.696,34.918],[127.688,34.924],[127.693,34.917],[127.673,34.904],[127.669,34.908],[127.671,34.903],[127.651,34.891],[127.64,34.886],[127.624,34.902],[127.619,34.914],[127.618,34.916],[127.615,34.913],[127.613,34.921],[127.608,34.923],[127.605,34.928],[127.605,34.938],[127.6,34.938],[127.598,34.926],[127.58,34.922],[127.579,34.919],[127.591,34.919],[127.614,34.892],[127.595,34.88],[127.592,34.881],[127.59,34.875],[127.604,34.861],[127.602,34.858],[127.608,34.851],[127.611,34.849],[127.614,34.853],[127.624,34.844],[127.636,34.847],[127.635,34.839],[127.627,34.84],[127.627,34.83],[127.632,34.829],[127.639,34.82],[127.639,34.831],[127.643,34.83],[127.662,34.844],[127.67,34.837],[127.675,34.845],[127.674,34.84],[127.68,34.845],[127.695,34.865],[127.699,34.859],[127.72,34.859],[127.736,34.864],[127.729,34.863],[127.729,34.86],[127.743,34.851],[127.739,34.862],[127.749,34.861],[127.765,34.864],[127.762,34.864],[127.774,34.861],[127.78,34.853],[127.776,34.855],[127.772,34.852],[127.775,34.847],[127.775,34.837],[127.768,34.831],[127.767,34.825],[127.775,34.821],[127.767,34.818],[127.768,34.8],[127.759,34.8],[127.757,34.787],[127.745,34.777],[127.754,34.764],[127.752,34.755],[127.757,34.752],[127.753,34.754],[127.749,34.751],[127.752,34.747],[127.748,34.747],[127.756,34.741],[127.767,34.747],[127.769,34.744],[127.763,34.744],[127.75,34.736],[127.742,34.737],[127.737,34.732],[127.736,34.722],[127.725,34.726],[127.703,34.72],[127.698,34.721],[127.7,34.724],[127.696,34.727],[127.678,34.736],[127.682,34.739],[127.68,34.742],[127.666,34.748],[127.663,34.741],[127.666,34.748],[127.662,34.752],[127.663,34.757],[127.657,34.755],[127.659,34.746],[127.653,34.744],[127.651,34.737],[127.641,34.727],[127.639,34.715],[127.643,34.707],[127.626,34.712],[127.628,34.717],[127.625,34.718],[127.621,34.713],[127.622,34.708],[127.617,34.71],[127.614,34.707],[127.628,34.696],[127.622,34.691],[127.623,34.687],[127.632,34.683],[127.634,34.686],[127.639,34.684],[127.631,34.68],[127.617,34.683],[127.633,34.67],[127.632,34.665],[127.635,34.661],[127.63,34.651],[127.643,34.65],[127.64,34.646],[127.634,34.646],[127.64,34.644],[127.633,34.636],[127.643,34.634],[127.646,34.629],[127.644,34.627],[127.636,34.626],[127.634,34.633],[127.625,34.63],[127.625,34.634],[127.615,34.643],[127.589,34.652],[127.575,34.648],[127.583,34.631],[127.58,34.631],[127.575,34.636],[127.568,34.65],[127.56,34.658],[127.553,34.659],[127.552,34.669],[127.56,34.671],[127.563,34.675],[127.55,34.682],[127.553,34.694],[127.558,34.694],[127.556,34.696],[127.56,34.7],[127.574,34.699],[127.581,34.694],[127.572,34.704],[127.564,34.701],[127.562,34.708],[127.558,34.702],[127.553,34.701],[127.556,34.712],[127.548,34.711],[127.551,34.718],[127.564,34.724],[127.563,34.728],[127.559,34.728],[127.561,34.732],[127.567,34.728],[127.579,34.733],[127.578,34.739],[127.583,34.74],[127.583,34.746],[127.604,34.743],[127.592,34.75],[127.584,34.75],[127.59,34.757],[127.583,34.769],[127.579,34.761],[127.573,34.76],[127.575,34.77],[127.572,34.774],[127.559,34.777],[127.563,34.781],[127.571,34.779],[127.573,34.783],[127.57,34.783],[127.567,34.791],[127.559,34.796],[127.561,34.802],[127.557,34.807],[127.546,34.81],[127.544,34.806],[127.538,34.805],[127.532,34.806],[127.527,34.811],[127.523,34.81],[127.526,34.822],[127.538,34.832],[127.543,34.842],[127.533,34.841],[127.532,34.836],[127.532,34.842],[127.526,34.845],[127.522,34.859],[127.515,34.87],[127.518,34.881],[127.512,34.881],[127.514,34.878],[127.504,34.874],[127.501,34.877],[127.496,34.874],[127.491,34.877],[127.49,34.87],[127.488,34.87],[127.494,34.867],[127.495,34.861],[127.49,34.857],[127.492,34.847],[127.486,34.842],[127.467,34.845],[127.447,34.837],[127.44,34.836],[127.434,34.84],[127.432,34.836],[127.42,34.831],[127.416,34.832],[127.417,34.83],[127.401,34.825],[127.389,34.829],[127.382,34.836],[127.368,34.835],[127.354,34.839],[127.366,34.831],[127.383,34.827],[127.392,34.815],[127.41,34.816],[127.42,34.811],[127.424,34.815],[127.427,34.814],[127.418,34.809],[127.413,34.803],[127.395,34.796],[127.39,34.786],[127.393,34.783],[127.389,34.785],[127.387,34.779],[127.37,34.779],[127.388,34.775],[127.393,34.777],[127.402,34.767],[127.397,34.757],[127.381,34.751],[127.373,34.742],[127.379,34.734],[127.379,34.727],[127.392,34.719],[127.387,34.715],[127.396,34.707],[127.402,34.709],[127.407,34.705],[127.415,34.707],[127.423,34.701],[127.433,34.702],[127.44,34.698],[127.445,34.691],[127.445,34.697],[127.452,34.695],[127.453,34.69],[127.448,34.688],[127.449,34.683],[127.444,34.682],[127.43,34.69],[127.42,34.701],[127.402,34.703],[127.424,34.691],[127.433,34.68],[127.43,34.675],[127.44,34.68],[127.447,34.674],[127.449,34.671],[127.446,34.662],[127.458,34.669],[127.457,34.666],[127.467,34.662],[127.467,34.665],[127.472,34.666],[127.465,34.666],[127.463,34.671],[127.472,34.674],[127.478,34.672],[127.477,34.666],[127.473,34.664],[127.476,34.662],[127.475,34.657],[127.481,34.652],[127.488,34.651],[127.492,34.643],[127.487,34.642],[127.477,34.646],[127.472,34.641],[127.468,34.642],[127.464,34.649],[127.459,34.646],[127.462,34.641],[127.475,34.636],[127.484,34.637],[127.492,34.633],[127.493,34.636],[127.497,34.632],[127.495,34.627],[127.499,34.619],[127.497,34.616],[127.503,34.611],[127.508,34.593],[127.497,34.59],[127.497,34.586],[127.487,34.578],[127.488,34.574],[127.481,34.578],[127.476,34.578],[127.476,34.573],[127.465,34.578],[127.461,34.581],[127.459,34.589],[127.462,34.591],[127.458,34.591],[127.458,34.585],[127.445,34.577],[127.433,34.583],[127.433,34.588],[127.419,34.582],[127.411,34.59],[127.396,34.587],[127.394,34.581],[127.399,34.576],[127.409,34.58],[127.404,34.569],[127.415,34.569],[127.42,34.573],[127.427,34.571],[127.43,34.566],[127.421,34.567],[127.421,34.564],[127.406,34.561],[127.403,34.563],[127.407,34.566],[127.404,34.569],[127.396,34.564],[127.397,34.56],[127.41,34.555],[127.414,34.559],[127.418,34.558],[127.415,34.557],[127.417,34.555],[127.423,34.557],[127.417,34.552],[127.431,34.555],[127.426,34.551],[127.427,34.548],[127.433,34.552],[127.438,34.549],[127.433,34.543],[127.427,34.543],[127.428,34.54],[127.435,34.54],[127.436,34.536],[127.429,34.537],[127.427,34.531],[127.423,34.529],[127.427,34.521],[127.431,34.52],[127.425,34.517],[127.431,34.513],[127.425,34.511],[127.413,34.521],[127.404,34.515],[127.407,34.512],[127.404,34.505],[127.394,34.505],[127.393,34.509],[127.389,34.51],[127.386,34.505],[127.38,34.504],[127.391,34.489],[127.387,34.483],[127.383,34.486],[127.382,34.479],[127.378,34.487],[127.371,34.48],[127.358,34.492],[127.354,34.49],[127.351,34.481],[127.344,34.483],[127.341,34.489],[127.341,34.485],[127.338,34.483],[127.341,34.481],[127.331,34.476],[127.325,34.477],[127.338,34.468],[127.333,34.463],[127.331,34.468],[127.323,34.47],[127.319,34.468],[127.32,34.463],[127.317,34.464],[127.337,34.457],[127.341,34.449],[127.339,34.446],[127.322,34.441],[127.311,34.45],[127.306,34.448],[127.305,34.454],[127.316,34.455],[127.309,34.458],[127.31,34.462],[127.302,34.458],[127.304,34.464],[127.297,34.463],[127.301,34.47],[127.293,34.471],[127.281,34.481],[127.277,34.478],[127.268,34.482],[127.274,34.493],[127.283,34.491],[127.278,34.495],[127.283,34.498],[127.268,34.511],[127.259,34.513],[127.254,34.521],[127.244,34.521],[127.245,34.514],[127.23,34.518],[127.233,34.525],[127.226,34.526],[127.22,34.534],[127.215,34.524],[127.209,34.527],[127.212,34.516],[127.208,34.517],[127.207,34.521],[127.194,34.532],[127.179,34.531],[127.174,34.526],[127.176,34.524],[127.173,34.52],[127.166,34.526],[127.153,34.524],[127.152,34.526],[127.146,34.521],[127.121,34.53],[127.121,34.541],[127.112,34.546],[127.113,34.559],[127.128,34.573],[127.136,34.574],[127.133,34.578],[127.144,34.584],[127.142,34.59],[127.148,34.601],[127.15,34.594],[127.16,34.591],[127.171,34.595],[127.167,34.602],[127.172,34.606],[127.172,34.627],[127.179,34.63],[127.19,34.644],[127.195,34.645],[127.196,34.652],[127.203,34.638],[127.198,34.597],[127.216,34.591],[127.226,34.585],[127.213,34.594],[127.202,34.597],[127.208,34.629],[127.224,34.636],[127.233,34.679],[127.244,34.685],[127.237,34.693],[127.241,34.693],[127.239,34.698],[127.248,34.702],[127.246,34.706],[127.253,34.705],[127.251,34.712],[127.259,34.712],[127.262,34.716],[127.269,34.712],[127.275,34.72],[127.281,34.719],[127.277,34.712],[127.282,34.706],[127.28,34.7],[127.287,34.696],[127.286,34.691],[127.281,34.687],[127.279,34.673],[127.286,34.67],[127.287,34.668],[127.297,34.669],[127.315,34.665],[127.32,34.672],[127.32,34.679],[127.317,34.682],[127.327,34.689],[127.332,34.707],[127.344,34.709],[127.343,34.716],[127.339,34.713],[127.333,34.715],[127.328,34.728],[127.327,34.752],[127.315,34.753],[127.304,34.75],[127.293,34.731],[127.286,34.736],[127.278,34.734],[127.279,34.738],[127.272,34.742],[127.262,34.732],[127.252,34.742],[127.246,34.761],[127.237,34.759],[127.243,34.761],[127.245,34.766],[127.244,34.775],[127.24,34.775],[127.235,34.763],[127.229,34.764],[127.23,34.758],[127.235,34.759],[127.23,34.758],[127.209,34.738],[127.212,34.731],[127.206,34.719],[127.187,34.696],[127.178,34.691],[127.144,34.693],[127.136,34.7],[127.128,34.702],[127.115,34.693],[127.111,34.681],[127.107,34.677],[127.1,34.675],[127.096,34.67],[127.065,34.661],[127.063,34.651],[127.047,34.635],[127.04,34.636],[127.028,34.628],[127.012,34.625],[126.985,34.628],[126.964,34.626],[126.967,34.623],[126.994,34.624],[126.994,34.615],[127.009,34.608],[127.008,34.605],[127.0,34.604],[127.0,34.598],[126.993,34.594],[126.993,34.582],[126.979,34.574],[126.985,34.569],[126.997,34.567],[127.005,34.57],[127.004,34.556],[126.998,34.562],[126.989,34.562],[126.987,34.556],[126.99,34.553],[126.986,34.546],[126.989,34.54],[126.972,34.543],[126.96,34.531],[126.965,34.523],[126.972,34.526],[126.974,34.524],[126.973,34.517],[126.978,34.511],[126.968,34.51],[126.969,34.505],[126.962,34.501],[126.967,34.492],[126.977,34.487],[126.979,34.471],[126.968,34.478],[126.962,34.469],[126.957,34.469],[126.945,34.483],[126.941,34.482],[126.938,34.476],[126.941,34.462],[126.947,34.457],[126.938,34.448],[126.933,34.447],[126.927,34.448],[126.926,34.453],[126.873,34.456],[126.887,34.434],[126.885,34.422],[126.875,34.436],[126.868,34.439],[126.865,34.434],[126.861,34.441],[126.847,34.448],[126.845,34.451],[126.843,34.448],[126.839,34.45],[126.839,34.453],[126.829,34.448],[126.818,34.449],[126.811,34.455],[126.807,34.45],[126.804,34.459],[126.809,34.468],[126.791,34.466],[126.785,34.469],[126.787,34.477],[126.797,34.48],[126.795,34.488],[126.792,34.489],[126.792,34.51],[126.787,34.512],[126.791,34.529],[126.79,34.541],[126.795,34.547],[126.791,34.548],[126.789,34.554],[126.794,34.568],[126.786,34.577],[126.79,34.582],[126.789,34.586],[126.78,34.59],[126.778,34.595],[126.782,34.598],[126.778,34.618],[126.782,34.633],[126.779,34.624],[126.77,34.616],[126.772,34.597],[126.766,34.563],[126.768,34.555],[126.765,34.545],[126.768,34.542],[126.764,34.54],[126.764,34.533],[126.773,34.529],[126.773,34.525],[126.759,34.526],[126.762,34.503],[126.766,34.498],[126.759,34.495],[126.761,34.491],[126.752,34.492],[126.738,34.486],[126.749,34.473],[126.754,34.475],[126.754,34.472],[126.748,34.472],[126.725,34.442],[126.719,34.445],[126.714,34.443],[126.714,34.439],[126.698,34.44],[126.681,34.426],[126.675,34.428],[126.678,34.422],[126.678,34.416],[126.674,34.416],[126.663,34.426],[126.66,34.422],[126.663,34.421],[126.652,34.421],[126.652,34.418],[126.647,34.418],[126.646,34.408],[126.635,34.412],[126.635,34.407],[126.628,34.402],[126.624,34.408],[126.619,34.403],[126.621,34.393],[126.613,34.386],[126.615,34.38],[126.623,34.378],[126.619,34.374],[126.621,34.359],[126.603,34.349],[126.611,34.342],[126.604,34.338],[126.602,34.32],[126.606,34.315],[126.597,34.312],[126.586,34.32],[126.559,34.322],[126.552,34.316],[126.545,34.303],[126.529,34.301],[126.528,34.294],[126.525,34.292],[126.519,34.296],[126.515,34.307],[126.519,34.313],[126.512,34.319],[126.521,34.324],[126.527,34.334],[126.52,34.345],[126.52,34.361],[126.511,34.365],[126.503,34.365],[126.499,34.358],[126.49,34.359],[126.476,34.348],[126.475,34.351],[126.471,34.349],[126.47,34.355],[126.466,34.358],[126.465,34.362],[126.468,34.364],[126.476,34.356],[126.481,34.359],[126.476,34.365],[126.482,34.362],[126.487,34.365],[126.475,34.373],[126.481,34.374],[126.481,34.376],[126.473,34.378],[126.481,34.383],[126.475,34.382],[126.471,34.384],[126.482,34.385],[126.483,34.389],[126.497,34.386],[126.497,34.389],[126.489,34.396],[126.487,34.408],[126.505,34.405],[126.517,34.414],[126.508,34.427],[126.514,34.434],[126.508,34.439],[126.5,34.436],[126.497,34.431],[126.484,34.434],[126.482,34.425],[126.476,34.427],[126.466,34.441],[126.454,34.449],[126.464,34.454],[126.471,34.448],[126.477,34.45],[126.467,34.457],[126.471,34.469],[126.468,34.471],[126.463,34.468],[126.455,34.478],[126.456,34.482],[126.465,34.484],[126.461,34.489],[126.456,34.489],[126.462,34.496],[126.456,34.501],[126.471,34.507],[126.462,34.52],[126.456,34.52],[126.457,34.523],[126.445,34.521],[126.44,34.524],[126.445,34.529],[126.451,34.528],[126.46,34.532],[126.443,34.539],[126.434,34.535],[126.438,34.54],[126.434,34.539],[126.436,34.55],[126.43,34.555],[126.42,34.554],[126.417,34.547],[126.405,34.547],[126.402,34.544],[126.404,34.54],[126.403,34.538],[126.386,34.532],[126.378,34.539],[126.389,34.551],[126.384,34.553],[126.383,34.562],[126.377,34.562],[126.375,34.559],[126.362,34.561],[126.355,34.567],[126.334,34.573],[126.314,34.567],[126.307,34.572],[126.309,34.576],[126.305,34.575],[126.304,34.577],[126.313,34.588],[126.299,34.59],[126.297,34.593],[126.299,34.598],[126.295,34.601],[126.292,34.592],[126.28,34.595],[126.283,34.604],[126.288,34.605],[126.28,34.611],[126.263,34.609],[126.259,34.612],[126.265,34.611],[126.269,34.615],[126.279,34.612],[126.283,34.617],[126.28,34.622],[126.293,34.629],[126.289,34.636],[126.285,34.63],[126.277,34.63],[126.26,34.641],[126.26,34.645],[126.267,34.643],[126.268,34.647],[126.259,34.653],[126.263,34.659],[126.255,34.664],[126.26,34.676],[126.255,34.68],[126.263,34.685],[126.258,34.693],[126.261,34.708],[126.267,34.704],[126.274,34.712],[126.274,34.718],[126.28,34.718],[126.275,34.722],[126.274,34.729],[126.284,34.748],[126.285,34.758],[126.299,34.763],[126.316,34.749],[126.318,34.751],[126.325,34.743],[126.333,34.741],[126.335,34.731],[126.332,34.728],[126.331,34.721],[126.34,34.719],[126.35,34.709],[126.351,34.703],[126.339,34.693],[126.338,34.685],[126.36,34.65],[126.361,34.639],[126.369,34.64],[126.371,34.637],[126.374,34.626],[126.37,34.605],[126.374,34.615],[126.38,34.618],[126.389,34.608],[126.393,34.61],[126.403,34.606],[126.409,34.607],[126.41,34.601],[126.435,34.59],[126.442,34.59],[126.452,34.582],[126.45,34.59],[126.465,34.595],[126.459,34.598],[126.436,34.598],[126.427,34.604],[126.428,34.614],[126.405,34.626],[126.418,34.636],[126.415,34.638],[126.406,34.633],[126.405,34.647],[126.419,34.656],[126.402,34.645],[126.404,34.63],[126.401,34.628],[126.394,34.627],[126.389,34.634],[126.374,34.644],[126.361,34.668],[126.363,34.674],[126.388,34.693],[126.378,34.709],[126.373,34.706],[126.379,34.695],[126.375,34.694],[126.376,34.689],[126.364,34.679],[126.355,34.677],[126.345,34.686],[126.347,34.695],[126.352,34.697],[126.361,34.694],[126.368,34.699],[126.375,34.715],[126.384,34.72],[126.388,34.731],[126.367,34.738],[126.363,34.744],[126.365,34.749],[126.369,34.748],[126.38,34.753],[126.38,34.757],[126.375,34.756],[126.382,34.764],[126.379,34.767],[126.449,34.783],[126.441,34.799],[126.425,34.792],[126.413,34.792],[126.414,34.788],[126.4,34.783],[126.388,34.78],[126.388,34.786],[126.382,34.779],[126.369,34.781],[126.366,34.789],[126.35,34.796],[126.358,34.804],[126.362,34.8],[126.365,34.803],[126.362,34.807],[126.387,34.83]],[[126.242,34.532],[126.247,34.532],[126.244,34.536],[126.246,34.54],[126.255,34.537],[126.261,34.548],[126.25,34.564],[126.245,34.568],[126.239,34.566],[126.242,34.574],[126.24,34.576],[126.245,34.58],[126.238,34.584],[126.245,34.589],[126.251,34.589],[126.252,34.584],[126.258,34.587],[126.267,34.582],[126.28,34.581],[126.282,34.577],[126.291,34.578],[126.293,34.573],[126.298,34.574],[126.31,34.563],[126.303,34.557],[126.325,34.541],[126.327,34.547],[126.332,34.546],[126.339,34.552],[126.342,34.55],[126.343,34.548],[126.338,34.548],[126.337,34.543],[126.345,34.542],[126.348,34.535],[126.354,34.532],[126.351,34.528],[126.36,34.527],[126.368,34.516],[126.377,34.513],[126.377,34.508],[126.382,34.504],[126.373,34.501],[126.373,34.497],[126.38,34.491],[126.379,34.487],[126.384,34.48],[126.379,34.478],[126.375,34.485],[126.358,34.481],[126.36,34.473],[126.372,34.472],[126.371,34.466],[126.365,34.463],[126.358,34.456],[126.365,34.443],[126.352,34.431],[126.352,34.426],[126.342,34.415],[126.336,34.415],[126.337,34.4],[126.331,34.401],[126.328,34.397],[126.321,34.405],[126.328,34.406],[126.321,34.413],[126.327,34.415],[126.323,34.417],[126.32,34.425],[126.319,34.419],[126.311,34.416],[126.315,34.4],[126.303,34.414],[126.301,34.413],[126.307,34.403],[126.3,34.403],[126.298,34.409],[126.293,34.409],[126.291,34.403],[126.297,34.398],[126.29,34.394],[126.297,34.391],[126.302,34.395],[126.305,34.389],[126.297,34.385],[126.299,34.383],[126.307,34.385],[126.309,34.383],[126.305,34.38],[126.309,34.374],[126.305,34.374],[126.299,34.369],[126.292,34.374],[126.289,34.371],[126.292,34.367],[126.289,34.364],[126.28,34.371],[126.284,34.38],[126.284,34.388],[126.29,34.388],[126.292,34.391],[126.284,34.395],[126.277,34.39],[126.276,34.396],[126.265,34.397],[126.26,34.387],[126.267,34.384],[126.265,34.381],[126.267,34.378],[126.246,34.38],[126.239,34.37],[126.234,34.368],[126.231,34.375],[126.229,34.37],[126.22,34.367],[126.209,34.371],[126.202,34.371],[126.213,34.364],[126.214,34.36],[126.206,34.361],[126.203,34.358],[126.188,34.356],[126.181,34.351],[126.182,34.359],[126.174,34.353],[126.163,34.353],[126.156,34.357],[126.159,34.362],[126.153,34.366],[126.145,34.365],[126.146,34.36],[126.142,34.357],[126.13,34.359],[126.132,34.364],[126.136,34.364],[126.134,34.367],[126.13,34.366],[126.137,34.369],[126.134,34.374],[126.145,34.38],[126.141,34.385],[126.13,34.385],[126.127,34.379],[126.114,34.381],[126.109,34.395],[126.097,34.404],[126.09,34.415],[126.091,34.422],[126.097,34.422],[126.092,34.426],[126.094,34.43],[126.1,34.431],[126.097,34.436],[126.112,34.448],[126.118,34.449],[126.123,34.444],[126.128,34.444],[126.125,34.447],[126.127,34.453],[126.118,34.453],[126.116,34.46],[126.14,34.469],[126.148,34.478],[126.173,34.485],[126.176,34.491],[126.173,34.495],[126.191,34.515],[126.195,34.512],[126.192,34.51],[126.188,34.496],[126.193,34.494],[126.205,34.496],[126.208,34.502],[126.204,34.507],[126.2,34.504],[126.198,34.51],[126.211,34.517],[126.223,34.516],[126.224,34.519],[126.212,34.527],[126.22,34.531],[126.225,34.53],[126.226,34.541],[126.228,34.536],[126.234,34.535],[126.236,34.538],[126.237,34.532],[126.242,34.532]],[[126.665,34.324],[126.653,34.331],[126.651,34.327],[126.643,34.327],[126.649,34.333],[126.647,34.339],[126.641,34.341],[126.645,34.346],[126.641,34.364],[126.646,34.367],[126.639,34.382],[126.648,34.393],[126.643,34.394],[126.637,34.388],[126.639,34.394],[126.628,34.395],[126.625,34.402],[126.654,34.393],[126.665,34.399],[126.667,34.396],[126.671,34.396],[126.671,34.402],[126.676,34.4],[126.686,34.403],[126.693,34.397],[126.703,34.398],[126.715,34.387],[126.727,34.383],[126.733,34.368],[126.729,34.362],[126.732,34.36],[126.731,34.352],[126.739,34.348],[126.736,34.343],[126.75,34.327],[126.749,34.322],[126.751,34.318],[126.758,34.315],[126.766,34.318],[126.772,34.312],[126.762,34.301],[126.778,34.288],[126.769,34.287],[126.768,34.29],[126.76,34.292],[126.748,34.291],[126.735,34.305],[126.732,34.302],[126.738,34.286],[126.731,34.287],[126.718,34.297],[126.703,34.297],[126.694,34.294],[126.679,34.305],[126.682,34.307],[126.677,34.315],[126.671,34.315],[126.67,34.323],[126.665,34.324]],[[126.081,34.779],[126.099,34.771],[126.102,34.774],[126.112,34.774],[126.121,34.777],[126.131,34.763],[126.138,34.758],[126.163,34.758],[126.175,34.754],[126.18,34.742],[126.194,34.732],[126.193,34.723],[126.196,34.719],[126.176,34.7],[126.159,34.698],[126.145,34.686],[126.136,34.687],[126.126,34.683],[126.117,34.684],[126.109,34.696],[126.099,34.697],[126.094,34.701],[126.094,34.707],[126.078,34.705],[126.072,34.712],[126.067,34.707],[126.064,34.712],[126.068,34.717],[126.068,34.728],[126.071,34.732],[126.07,34.741],[126.073,34.747],[126.081,34.75],[126.07,34.763],[126.063,34.765],[126.063,34.769],[126.068,34.772],[126.08,34.769],[126.083,34.765],[126.087,34.767],[126.076,34.773],[126.076,34.778],[126.081,34.779]],[[127.749,34.734],[127.787,34.716],[127.791,34.702],[127.78,34.697],[127.782,34.689],[127.776,34.681],[127.785,34.67],[127.792,34.673],[127.795,34.668],[127.801,34.668],[127.794,34.665],[127.795,34.661],[127.807,34.661],[127.806,34.658],[127.798,34.655],[127.796,34.649],[127.8,34.63],[127.796,34.628],[127.792,34.63],[127.792,34.611],[127.788,34.607],[127.803,34.602],[127.802,34.596],[127.808,34.597],[127.806,34.59],[127.801,34.586],[127.79,34.585],[127.78,34.588],[127.771,34.588],[127.764,34.593],[127.749,34.593],[127.738,34.603],[127.738,34.61],[127.719,34.613],[127.712,34.621],[127.715,34.628],[127.724,34.634],[127.725,34.637],[127.718,34.643],[127.722,34.654],[127.743,34.665],[127.752,34.68],[127.763,34.688],[127.756,34.691],[127.754,34.709],[127.758,34.713],[127.747,34.714],[127.742,34.722],[127.742,34.727],[127.737,34.73],[127.74,34.734],[127.749,34.734]],[[127.228,34.489],[127.239,34.474],[127.23,34.471],[127.23,34.463],[127.222,34.455],[127.218,34.439],[127.208,34.43],[127.166,34.435],[127.162,34.433],[127.163,34.428],[127.154,34.431],[127.145,34.429],[127.141,34.421],[127.137,34.429],[127.125,34.431],[127.124,34.436],[127.115,34.439],[127.118,34.445],[127.115,34.448],[127.109,34.448],[127.107,34.442],[127.099,34.443],[127.106,34.455],[127.093,34.471],[127.096,34.474],[127.103,34.47],[127.107,34.476],[127.114,34.477],[127.117,34.483],[127.11,34.485],[127.115,34.49],[127.117,34.488],[127.124,34.491],[127.128,34.479],[127.137,34.48],[127.136,34.474],[127.14,34.473],[127.147,34.476],[127.148,34.481],[127.162,34.48],[127.176,34.492],[127.182,34.491],[127.189,34.495],[127.196,34.493],[127.198,34.488],[127.216,34.496],[127.228,34.489]],[[126.063,34.936],[126.064,34.934],[126.069,34.937],[126.079,34.932],[126.076,34.923],[126.078,34.921],[126.083,34.926],[126.081,34.92],[126.092,34.923],[126.091,34.917],[126.084,34.912],[126.098,34.911],[126.096,34.904],[126.104,34.901],[126.096,34.875],[126.085,34.864],[126.05,34.853],[126.046,34.85],[126.048,34.845],[126.044,34.843],[126.032,34.858],[126.026,34.86],[126.024,34.855],[126.02,34.861],[126.017,34.86],[126.022,34.864],[126.02,34.866],[126.009,34.859],[125.997,34.865],[125.977,34.863],[125.974,34.864],[125.98,34.867],[125.977,34.872],[125.975,34.869],[125.968,34.87],[125.966,34.873],[125.968,34.877],[125.987,34.876],[125.992,34.88],[125.995,34.883],[125.992,34.889],[125.999,34.889],[126.005,34.897],[126.005,34.902],[126.01,34.904],[126.014,34.914],[126.018,34.913],[126.022,34.909],[126.031,34.91],[126.037,34.915],[126.034,34.919],[126.037,34.92],[126.046,34.912],[126.053,34.913],[126.058,34.92],[126.053,34.92],[126.05,34.923],[126.057,34.925],[126.058,34.932],[126.055,34.939],[126.063,34.936]],[[125.997,34.805],[126.001,34.793],[125.996,34.78],[125.997,34.774],[126.001,34.773],[126.0,34.762],[125.992,34.755],[125.989,34.762],[125.977,34.752],[125.964,34.752],[125.963,34.747],[125.955,34.753],[125.942,34.753],[125.939,34.75],[125.946,34.744],[125.945,34.737],[125.951,34.732],[125.944,34.73],[125.942,34.721],[125.924,34.716],[125.91,34.716],[125.901,34.719],[125.903,34.725],[125.894,34.726],[125.893,34.732],[125.886,34.73],[125.889,34.733],[125.887,34.738],[125.891,34.746],[125.89,34.756],[125.894,34.76],[125.889,34.765],[125.897,34.774],[125.899,34.781],[125.904,34.779],[125.907,34.782],[125.91,34.78],[125.909,34.777],[125.911,34.776],[125.916,34.776],[125.915,34.78],[125.925,34.775],[125.936,34.776],[125.953,34.784],[125.952,34.789],[125.963,34.787],[125.963,34.791],[125.97,34.794],[125.972,34.797],[125.97,34.8],[125.974,34.803],[125.991,34.804],[125.993,34.807],[125.997,34.805]],[[126.162,35.144],[126.145,35.137],[126.128,35.116],[126.121,35.1],[126.124,35.092],[126.123,35.076],[126.116,35.066],[126.119,35.061],[126.116,35.058],[126.106,35.057],[126.109,35.049],[126.097,35.047],[126.091,35.052],[126.076,35.054],[126.073,35.06],[126.074,35.067],[126.064,35.065],[126.063,35.059],[126.066,35.056],[126.063,35.055],[126.057,35.057],[126.059,35.062],[126.056,35.063],[126.048,35.061],[126.043,35.067],[126.037,35.065],[126.037,35.071],[126.043,35.07],[126.046,35.073],[126.046,35.077],[126.041,35.078],[126.041,35.085],[126.051,35.094],[126.048,35.103],[126.071,35.105],[126.085,35.112],[126.098,35.124],[126.1,35.132],[126.109,35.133],[126.114,35.139],[126.113,35.144],[126.141,35.143],[126.153,35.148],[126.165,35.146],[126.162,35.144]],[[126.303,34.919],[126.311,34.909],[126.321,34.908],[126.319,34.913],[126.336,34.909],[126.341,34.902],[126.352,34.898],[126.35,34.887],[126.345,34.894],[126.337,34.893],[126.335,34.887],[126.326,34.892],[126.326,34.882],[126.33,34.879],[126.32,34.884],[126.313,34.879],[126.326,34.873],[126.316,34.867],[126.321,34.862],[126.354,34.865],[126.363,34.857],[126.368,34.858],[126.372,34.843],[126.366,34.84],[126.366,34.836],[126.371,34.839],[126.373,34.833],[126.366,34.831],[126.368,34.824],[126.361,34.823],[126.358,34.815],[126.35,34.814],[126.343,34.818],[126.338,34.816],[126.327,34.822],[126.327,34.825],[126.336,34.827],[126.337,34.834],[126.346,34.835],[126.344,34.842],[126.336,34.84],[126.334,34.848],[126.329,34.851],[126.321,34.85],[126.316,34.846],[126.313,34.853],[126.296,34.851],[126.292,34.855],[126.277,34.856],[126.272,34.848],[126.262,34.84],[126.255,34.84],[126.241,34.848],[126.227,34.847],[126.233,34.865],[126.243,34.859],[126.264,34.859],[126.269,34.873],[126.274,34.864],[126.279,34.863],[126.282,34.868],[126.278,34.873],[126.28,34.887],[126.286,34.887],[126.293,34.881],[126.304,34.887],[126.295,34.901],[126.291,34.901],[126.281,34.91],[126.296,34.922],[126.303,34.919]],[[125.969,34.728],[125.977,34.719],[125.981,34.723],[125.992,34.72],[125.993,34.713],[125.991,34.711],[125.998,34.706],[125.997,34.719],[126.005,34.721],[125.992,34.727],[125.991,34.731],[125.999,34.732],[126.01,34.722],[126.009,34.719],[126.015,34.71],[126.009,34.704],[126.014,34.704],[126.015,34.701],[126.008,34.684],[125.988,34.678],[125.988,34.673],[125.98,34.673],[125.979,34.662],[125.965,34.656],[125.954,34.658],[125.957,34.668],[125.954,34.672],[125.94,34.663],[125.938,34.668],[125.931,34.669],[125.936,34.673],[125.932,34.677],[125.928,34.677],[125.925,34.668],[125.921,34.67],[125.922,34.679],[125.916,34.677],[125.917,34.685],[125.914,34.685],[125.916,34.711],[125.937,34.716],[125.946,34.714],[125.948,34.722],[125.961,34.738],[125.969,34.728]],[[126.145,35.026],[126.157,35.026],[126.165,35.023],[126.182,34.997],[126.182,34.995],[126.179,34.997],[126.177,34.994],[126.183,34.994],[126.188,34.987],[126.188,34.977],[126.175,34.946],[126.17,34.948],[126.17,34.944],[126.172,34.944],[126.158,34.938],[126.145,34.941],[126.141,34.947],[126.126,34.942],[126.124,34.946],[126.123,34.951],[126.135,34.968],[126.134,35.0],[126.123,35.0],[126.114,34.992],[126.113,34.997],[126.105,34.994],[126.103,35.0],[126.097,35.0],[126.1,35.008],[126.108,35.006],[126.108,35.009],[126.114,35.01],[126.115,35.018],[126.127,35.027],[126.132,35.024],[126.133,35.027],[126.145,35.026]],[[126.833,34.433],[126.836,34.432],[126.84,34.434],[126.846,34.43],[126.844,34.42],[126.828,34.422],[126.826,34.419],[126.84,34.411],[126.85,34.419],[126.853,34.413],[126.848,34.408],[126.857,34.407],[126.862,34.4],[126.859,34.397],[126.865,34.397],[126.868,34.39],[126.855,34.393],[126.85,34.388],[126.847,34.39],[126.833,34.383],[126.831,34.378],[126.823,34.387],[126.819,34.382],[126.803,34.385],[126.793,34.382],[126.785,34.37],[126.781,34.37],[126.782,34.362],[126.776,34.357],[126.78,34.352],[126.766,34.359],[126.772,34.375],[126.779,34.382],[126.758,34.383],[126.749,34.38],[126.758,34.394],[126.768,34.399],[126.764,34.408],[126.772,34.414],[126.775,34.422],[126.788,34.433],[126.801,34.432],[126.835,34.444],[126.833,34.433]],[[126.116,34.882],[126.124,34.879],[126.131,34.881],[126.138,34.875],[126.14,34.881],[126.144,34.881],[126.145,34.875],[126.155,34.869],[126.158,34.862],[126.15,34.859],[126.135,34.862],[126.135,34.853],[126.151,34.845],[126.149,34.839],[126.14,34.835],[126.139,34.83],[126.143,34.824],[126.125,34.836],[126.122,34.834],[126.115,34.826],[126.117,34.817],[126.123,34.812],[126.118,34.806],[126.119,34.8],[126.094,34.797],[126.091,34.801],[126.096,34.805],[126.091,34.815],[126.074,34.823],[126.076,34.828],[126.058,34.85],[126.075,34.851],[126.087,34.861],[126.092,34.855],[126.102,34.852],[126.115,34.851],[126.12,34.858],[126.11,34.865],[126.112,34.875],[126.108,34.878],[126.116,34.882]],[[126.147,34.674],[126.163,34.67],[126.171,34.664],[126.184,34.662],[126.184,34.655],[126.188,34.65],[126.185,34.645],[126.188,34.641],[126.185,34.639],[126.201,34.643],[126.203,34.635],[126.188,34.631],[126.178,34.624],[126.178,34.62],[126.17,34.621],[126.162,34.616],[126.146,34.619],[126.138,34.618],[126.131,34.613],[126.122,34.615],[126.129,34.621],[126.119,34.629],[126.108,34.645],[126.114,34.659],[126.12,34.666],[126.147,34.674]],[[126.083,34.614],[126.09,34.608],[126.1,34.609],[126.103,34.605],[126.099,34.597],[126.105,34.596],[126.104,34.592],[126.111,34.589],[126.103,34.583],[126.105,34.579],[126.099,34.58],[126.104,34.576],[126.103,34.574],[126.096,34.574],[126.093,34.57],[126.102,34.559],[126.101,34.553],[126.083,34.555],[126.087,34.546],[126.078,34.54],[126.067,34.537],[126.062,34.539],[126.065,34.534],[126.057,34.534],[126.057,34.53],[126.043,34.53],[126.04,34.534],[126.032,34.531],[126.025,34.534],[126.029,34.544],[126.035,34.543],[126.037,34.538],[126.047,34.539],[126.044,34.547],[126.058,34.549],[126.058,34.555],[126.056,34.556],[126.049,34.554],[126.039,34.558],[126.034,34.55],[126.032,34.553],[126.027,34.549],[126.026,34.556],[126.031,34.563],[126.046,34.566],[126.065,34.561],[126.073,34.571],[126.071,34.572],[126.08,34.578],[126.08,34.583],[126.074,34.583],[126.068,34.594],[126.068,34.6],[126.064,34.608],[126.046,34.609],[126.049,34.629],[126.058,34.634],[126.068,34.635],[126.083,34.618],[126.083,34.614]],[[126.549,34.18],[126.555,34.175],[126.556,34.168],[126.57,34.17],[126.574,34.163],[126.576,34.169],[126.598,34.169],[126.604,34.168],[126.61,34.162],[126.621,34.165],[126.625,34.157],[126.617,34.148],[126.603,34.159],[126.606,34.148],[126.603,34.146],[126.591,34.162],[126.589,34.158],[126.58,34.157],[126.581,34.151],[126.574,34.149],[126.577,34.144],[126.566,34.143],[126.564,34.135],[126.53,34.121],[126.519,34.125],[126.512,34.121],[126.511,34.13],[126.504,34.139],[126.509,34.144],[126.503,34.148],[126.509,34.151],[126.504,34.161],[126.516,34.166],[126.516,34.17],[126.532,34.176],[126.532,34.18],[126.54,34.183],[126.549,34.18]],[[126.839,34.353],[126.844,34.353],[126.844,34.348],[126.849,34.345],[126.856,34.351],[126.859,34.344],[126.867,34.35],[126.872,34.35],[126.877,34.347],[126.875,34.345],[126.879,34.343],[126.881,34.337],[126.898,34.345],[126.898,34.332],[126.892,34.33],[126.889,34.334],[126.881,34.33],[126.884,34.323],[126.887,34.322],[126.884,34.309],[126.872,34.309],[126.871,34.318],[126.869,34.321],[126.865,34.321],[126.867,34.312],[126.858,34.31],[126.85,34.301],[126.842,34.298],[126.836,34.306],[126.838,34.313],[126.829,34.324],[126.809,34.326],[126.799,34.323],[126.795,34.315],[126.791,34.315],[126.78,34.328],[126.774,34.327],[126.762,34.333],[126.757,34.331],[126.751,34.334],[126.761,34.339],[126.776,34.335],[126.786,34.348],[126.794,34.344],[126.805,34.334],[126.819,34.338],[126.818,34.348],[126.828,34.356],[126.835,34.359],[126.839,34.353]],[[126.896,34.212],[126.912,34.213],[126.912,34.206],[126.904,34.202],[126.912,34.195],[126.912,34.187],[126.923,34.191],[126.931,34.188],[126.92,34.186],[126.925,34.175],[126.92,34.17],[126.915,34.154],[126.909,34.152],[126.895,34.154],[126.881,34.15],[126.878,34.152],[126.881,34.155],[126.873,34.16],[126.871,34.166],[126.865,34.166],[126.86,34.162],[126.861,34.157],[126.856,34.15],[126.853,34.157],[126.855,34.161],[126.848,34.163],[126.859,34.171],[126.856,34.173],[126.851,34.169],[126.847,34.174],[126.851,34.182],[126.854,34.176],[126.857,34.177],[126.853,34.186],[126.861,34.194],[126.861,34.198],[126.857,34.199],[126.87,34.204],[126.873,34.207],[126.872,34.21],[126.884,34.213],[126.885,34.217],[126.891,34.217],[126.892,34.214],[126.896,34.212]],[[126.568,34.234],[126.567,34.23],[126.572,34.23],[126.573,34.223],[126.577,34.229],[126.589,34.223],[126.595,34.227],[126.608,34.224],[126.608,34.219],[126.615,34.216],[126.618,34.209],[126.624,34.207],[126.624,34.201],[126.615,34.196],[126.603,34.2],[126.617,34.186],[126.615,34.178],[126.604,34.174],[126.587,34.172],[126.56,34.179],[126.562,34.189],[126.548,34.189],[126.547,34.193],[126.556,34.196],[126.553,34.196],[126.553,34.207],[126.564,34.212],[126.559,34.214],[126.558,34.21],[126.554,34.212],[126.556,34.219],[126.566,34.22],[126.565,34.226],[126.561,34.225],[126.553,34.233],[126.568,34.234]],[[125.442,34.7],[125.443,34.696],[125.432,34.695],[125.43,34.686],[125.441,34.685],[125.444,34.688],[125.438,34.689],[125.446,34.695],[125.452,34.691],[125.451,34.695],[125.455,34.697],[125.465,34.693],[125.466,34.687],[125.461,34.681],[125.454,34.685],[125.448,34.681],[125.445,34.663],[125.435,34.657],[125.427,34.659],[125.43,34.644],[125.415,34.639],[125.414,34.622],[125.403,34.623],[125.393,34.628],[125.385,34.644],[125.398,34.647],[125.397,34.65],[125.386,34.654],[125.387,34.659],[125.397,34.664],[125.396,34.672],[125.408,34.686],[125.407,34.696],[125.418,34.699],[125.43,34.698],[125.44,34.703],[125.442,34.7]],[[126.049,34.659],[126.053,34.653],[126.051,34.641],[126.044,34.629],[126.041,34.632],[126.042,34.619],[126.037,34.611],[126.04,34.605],[126.046,34.603],[126.055,34.605],[126.063,34.594],[126.062,34.587],[126.065,34.583],[126.061,34.572],[126.056,34.568],[126.047,34.571],[126.041,34.568],[126.037,34.572],[126.032,34.572],[126.03,34.565],[126.019,34.564],[126.018,34.572],[126.021,34.574],[126.012,34.589],[126.015,34.586],[126.026,34.593],[126.02,34.6],[126.015,34.596],[126.011,34.596],[126.014,34.602],[126.011,34.608],[126.016,34.618],[126.01,34.631],[126.015,34.636],[126.028,34.636],[126.028,34.647],[126.039,34.658],[126.044,34.66],[126.045,34.668],[126.047,34.669],[126.049,34.659]],[[126.944,34.413],[126.948,34.41],[126.951,34.403],[126.944,34.395],[126.942,34.387],[126.935,34.383],[126.948,34.378],[126.949,34.367],[126.939,34.366],[126.934,34.371],[126.93,34.369],[126.922,34.367],[126.925,34.362],[126.922,34.359],[126.914,34.355],[126.91,34.36],[126.906,34.354],[126.893,34.361],[126.889,34.358],[126.887,34.362],[126.889,34.365],[126.869,34.368],[126.864,34.375],[126.865,34.384],[126.872,34.394],[126.871,34.4],[126.862,34.407],[126.865,34.411],[126.872,34.409],[126.871,34.403],[126.875,34.4],[126.879,34.4],[126.882,34.407],[126.89,34.402],[126.892,34.396],[126.897,34.397],[126.895,34.403],[126.899,34.403],[126.898,34.399],[126.9,34.398],[126.904,34.402],[126.908,34.403],[126.906,34.4],[126.912,34.397],[126.912,34.392],[126.921,34.395],[126.931,34.391],[126.935,34.392],[126.943,34.403],[126.941,34.407],[126.944,34.409],[126.944,34.413]],[[126.17,34.803],[126.169,34.79],[126.175,34.787],[126.175,34.768],[126.175,34.762],[126.17,34.758],[126.161,34.761],[126.14,34.761],[126.136,34.762],[126.123,34.78],[126.1,34.778],[126.092,34.786],[126.081,34.789],[126.087,34.793],[126.094,34.79],[126.114,34.795],[126.117,34.793],[126.123,34.798],[126.133,34.8],[126.158,34.824],[126.166,34.821],[126.17,34.803]],[[127.035,34.376],[127.051,34.364],[127.051,34.359],[127.045,34.358],[127.046,34.353],[127.053,34.355],[127.054,34.361],[127.059,34.363],[127.076,34.363],[127.094,34.357],[127.091,34.348],[127.103,34.337],[127.094,34.335],[127.089,34.336],[127.087,34.342],[127.068,34.346],[127.064,34.34],[127.077,34.339],[127.083,34.335],[127.076,34.331],[127.069,34.334],[127.056,34.329],[127.057,34.322],[127.05,34.324],[127.044,34.316],[127.044,34.308],[127.04,34.308],[127.035,34.323],[127.046,34.33],[127.05,34.329],[127.053,34.334],[127.052,34.339],[127.043,34.341],[127.036,34.337],[127.036,34.333],[127.03,34.332],[127.029,34.334],[127.032,34.339],[127.025,34.336],[127.018,34.339],[127.032,34.342],[127.026,34.348],[127.015,34.353],[127.009,34.349],[127.0,34.351],[126.985,34.36],[126.989,34.363],[127.007,34.358],[127.011,34.363],[127.007,34.367],[127.011,34.377],[127.02,34.378],[127.028,34.374],[127.03,34.381],[127.035,34.376]],[[127.741,34.553],[127.752,34.55],[127.758,34.552],[127.764,34.54],[127.762,34.535],[127.78,34.52],[127.782,34.512],[127.767,34.51],[127.778,34.505],[127.788,34.506],[127.793,34.501],[127.792,34.497],[127.795,34.495],[127.799,34.497],[127.79,34.487],[127.771,34.487],[127.77,34.491],[127.764,34.49],[127.772,34.498],[127.754,34.499],[127.754,34.505],[127.747,34.502],[127.735,34.503],[127.734,34.506],[127.741,34.51],[127.725,34.516],[127.733,34.527],[127.72,34.523],[127.713,34.53],[127.701,34.532],[127.697,34.538],[127.712,34.538],[127.726,34.548],[127.741,34.553]],[[126.661,34.195],[126.669,34.195],[126.671,34.19],[126.685,34.182],[126.682,34.176],[126.66,34.173],[126.657,34.17],[126.659,34.164],[126.669,34.163],[126.67,34.149],[126.679,34.152],[126.683,34.147],[126.681,34.139],[126.675,34.139],[126.671,34.145],[126.669,34.143],[126.674,34.133],[126.668,34.126],[126.671,34.12],[126.659,34.11],[126.657,34.114],[126.648,34.114],[126.651,34.128],[126.648,34.13],[126.638,34.12],[126.636,34.132],[126.629,34.137],[126.632,34.143],[126.627,34.147],[126.651,34.17],[126.634,34.18],[126.637,34.183],[126.633,34.188],[126.645,34.19],[126.645,34.197],[126.65,34.2],[126.661,34.195]],[[127.462,34.474],[127.47,34.472],[127.468,34.47],[127.473,34.465],[127.491,34.466],[127.49,34.463],[127.483,34.46],[127.492,34.459],[127.498,34.468],[127.5,34.463],[127.504,34.464],[127.507,34.468],[127.505,34.474],[127.522,34.458],[127.521,34.454],[127.537,34.448],[127.535,34.444],[127.538,34.431],[127.53,34.422],[127.52,34.426],[127.502,34.415],[127.493,34.412],[127.488,34.413],[127.487,34.418],[127.494,34.426],[127.493,34.431],[127.482,34.437],[127.479,34.432],[127.475,34.433],[127.461,34.444],[127.465,34.447],[127.48,34.442],[127.484,34.447],[127.473,34.452],[127.467,34.45],[127.465,34.453],[127.452,34.446],[127.45,34.449],[127.458,34.452],[127.454,34.456],[127.453,34.474],[127.457,34.477],[127.462,34.474]],[[127.785,34.915],[127.784,34.886],[127.776,34.886],[127.761,34.893],[127.759,34.906],[127.704,34.913],[127.703,34.931],[127.714,34.933],[127.715,34.938],[127.73,34.951],[127.74,34.946],[127.736,34.935],[127.738,34.932],[127.765,34.932],[127.785,34.915]],[[127.465,34.544],[127.474,34.544],[127.478,34.535],[127.472,34.529],[127.46,34.529],[127.459,34.525],[127.47,34.523],[127.476,34.515],[127.467,34.518],[127.458,34.514],[127.465,34.508],[127.465,34.513],[127.467,34.51],[127.479,34.51],[127.485,34.505],[127.486,34.509],[127.49,34.509],[127.496,34.503],[127.502,34.505],[127.5,34.499],[127.506,34.49],[127.491,34.484],[127.489,34.49],[127.482,34.484],[127.464,34.485],[127.461,34.484],[127.463,34.48],[127.459,34.478],[127.457,34.481],[127.452,34.479],[127.449,34.488],[127.442,34.49],[127.444,34.497],[127.458,34.504],[127.452,34.506],[127.455,34.511],[127.45,34.516],[127.439,34.516],[127.434,34.52],[127.454,34.544],[127.465,34.544]],[[126.04,34.319],[126.046,34.309],[126.055,34.304],[126.08,34.308],[126.089,34.312],[126.09,34.305],[126.087,34.299],[126.088,34.293],[126.093,34.289],[126.091,34.284],[126.096,34.276],[126.094,34.273],[126.087,34.281],[126.081,34.28],[126.08,34.284],[126.074,34.284],[126.067,34.274],[126.062,34.279],[126.063,34.289],[126.061,34.285],[126.053,34.287],[126.059,34.278],[126.056,34.274],[126.05,34.282],[126.023,34.285],[126.028,34.29],[126.024,34.295],[126.015,34.291],[126.017,34.3],[126.021,34.303],[126.032,34.305],[126.021,34.307],[126.024,34.313],[126.03,34.31],[126.034,34.312],[126.029,34.316],[126.04,34.319]],[[127.048,34.457],[127.051,34.453],[127.056,34.459],[127.066,34.452],[127.076,34.428],[127.075,34.421],[127.068,34.42],[127.073,34.418],[127.072,34.414],[127.061,34.4],[127.059,34.413],[127.047,34.414],[127.04,34.419],[127.036,34.424],[127.033,34.448],[127.022,34.454],[127.042,34.46],[127.052,34.459],[127.048,34.457]],[[126.215,34.986],[126.229,34.985],[126.227,34.965],[126.216,34.952],[126.213,34.937],[126.214,34.933],[126.199,34.916],[126.195,34.915],[126.188,34.92],[126.193,34.922],[126.188,34.946],[126.204,34.983],[126.215,34.986]],[[126.989,34.337],[127.005,34.338],[127.01,34.332],[127.015,34.332],[127.016,34.323],[127.006,34.321],[127.004,34.314],[126.993,34.312],[126.991,34.309],[126.993,34.305],[126.978,34.306],[126.972,34.301],[126.966,34.304],[126.966,34.311],[126.959,34.308],[126.957,34.315],[126.957,34.329],[126.971,34.339],[126.983,34.341],[126.989,34.337]],[[126.155,35.056],[126.18,35.052],[126.186,35.042],[126.192,35.045],[126.2,35.04],[126.2,35.031],[126.195,35.028],[126.196,35.01],[126.19,35.007],[126.19,35.014],[126.194,35.014],[126.193,35.017],[126.184,35.021],[126.183,35.027],[126.171,35.027],[126.17,35.025],[126.166,35.029],[126.167,35.034],[126.149,35.034],[126.14,35.042],[126.134,35.042],[126.137,35.047],[126.127,35.048],[126.137,35.058],[126.14,35.055],[126.146,35.059],[126.155,35.056]],[[125.103,34.096],[125.111,34.095],[125.115,34.088],[125.124,34.088],[125.121,34.077],[125.144,34.056],[125.145,34.049],[125.122,34.047],[125.116,34.051],[125.112,34.063],[125.082,34.075],[125.084,34.077],[125.093,34.074],[125.096,34.095],[125.089,34.099],[125.103,34.096]],[[127.725,34.895],[127.745,34.891],[127.751,34.878],[127.746,34.873],[127.727,34.874],[127.723,34.868],[127.698,34.873],[127.7,34.877],[127.692,34.884],[127.698,34.892],[127.716,34.899],[127.725,34.895]],[[125.854,34.619],[125.859,34.619],[125.861,34.604],[125.847,34.602],[125.842,34.597],[125.829,34.601],[125.818,34.593],[125.811,34.596],[125.811,34.603],[125.822,34.604],[125.825,34.61],[125.813,34.61],[125.811,34.614],[125.814,34.616],[125.801,34.621],[125.803,34.624],[125.812,34.622],[125.821,34.615],[125.846,34.626],[125.847,34.63],[125.855,34.631],[125.858,34.623],[125.854,34.619]],[[127.658,34.586],[127.667,34.583],[127.671,34.572],[127.675,34.575],[127.681,34.57],[127.685,34.572],[127.683,34.575],[127.691,34.577],[127.696,34.575],[127.697,34.569],[127.703,34.568],[127.705,34.565],[127.697,34.563],[127.69,34.565],[127.687,34.559],[127.687,34.564],[127.691,34.568],[127.688,34.571],[127.678,34.567],[127.674,34.556],[127.67,34.555],[127.669,34.561],[127.659,34.553],[127.649,34.556],[127.648,34.567],[127.642,34.57],[127.638,34.566],[127.641,34.562],[127.639,34.556],[127.638,34.574],[127.648,34.581],[127.654,34.58],[127.658,34.586]],[[126.199,34.695],[126.201,34.69],[126.197,34.683],[126.181,34.673],[126.174,34.673],[126.167,34.68],[126.161,34.68],[126.162,34.686],[126.156,34.684],[126.154,34.687],[126.16,34.693],[126.169,34.697],[126.177,34.695],[126.181,34.7],[126.188,34.703],[126.192,34.71],[126.203,34.703],[126.204,34.7],[126.199,34.695]],[[127.26,34.247],[127.263,34.245],[127.259,34.243],[127.262,34.238],[127.258,34.237],[127.26,34.23],[127.258,34.23],[127.263,34.227],[127.25,34.222],[127.258,34.219],[127.259,34.211],[127.245,34.214],[127.241,34.219],[127.221,34.21],[127.231,34.226],[127.233,34.237],[127.238,34.235],[127.243,34.238],[127.243,34.248],[127.247,34.247],[127.256,34.251],[127.26,34.247]],[[125.207,34.685],[125.202,34.68],[125.195,34.682],[125.194,34.679],[125.198,34.673],[125.196,34.67],[125.19,34.672],[125.188,34.664],[125.181,34.664],[125.173,34.674],[125.178,34.676],[125.177,34.68],[125.183,34.685],[125.183,34.688],[125.188,34.685],[125.192,34.687],[125.192,34.694],[125.2,34.704],[125.199,34.711],[125.209,34.717],[125.213,34.715],[125.211,34.709],[125.215,34.705],[125.207,34.685]],[[126.081,34.689],[126.087,34.669],[126.086,34.658],[126.08,34.653],[126.079,34.643],[126.07,34.643],[126.064,34.655],[126.066,34.67],[126.063,34.68],[126.067,34.681],[126.064,34.684],[126.068,34.687],[126.079,34.692],[126.081,34.689]],[[126.03,34.341],[126.054,34.332],[126.061,34.321],[126.058,34.319],[126.05,34.324],[126.038,34.322],[126.038,34.326],[126.046,34.324],[126.037,34.33],[126.034,34.324],[126.024,34.33],[126.021,34.323],[126.008,34.322],[125.998,34.325],[125.996,34.335],[125.992,34.339],[125.999,34.341],[126.006,34.335],[126.016,34.333],[126.011,34.339],[126.024,34.34],[126.026,34.343],[126.03,34.341]],[[127.293,34.064],[127.298,34.058],[127.292,34.048],[127.294,34.04],[127.297,34.039],[127.297,34.032],[127.308,34.026],[127.305,34.019],[127.316,34.014],[127.325,34.015],[127.325,34.005],[127.316,34.013],[127.294,34.014],[127.288,34.033],[127.285,34.036],[127.281,34.034],[127.279,34.043],[127.282,34.051],[127.274,34.052],[127.28,34.06],[127.283,34.055],[127.286,34.059],[127.294,34.056],[127.291,34.063],[127.293,34.064]],[[127.805,34.461],[127.808,34.459],[127.802,34.454],[127.802,34.451],[127.817,34.452],[127.81,34.444],[127.81,34.434],[127.805,34.429],[127.81,34.425],[127.808,34.416],[127.803,34.414],[127.806,34.408],[127.799,34.41],[127.796,34.416],[127.789,34.413],[127.786,34.415],[127.789,34.426],[127.801,34.429],[127.801,34.432],[127.785,34.43],[127.786,34.435],[127.791,34.436],[127.798,34.444],[127.795,34.457],[127.805,34.461]],[[126.059,34.497],[126.059,34.493],[126.065,34.493],[126.066,34.49],[126.06,34.488],[126.059,34.483],[126.055,34.482],[126.06,34.48],[126.066,34.485],[126.072,34.481],[126.066,34.478],[126.066,34.475],[126.053,34.472],[126.054,34.467],[126.041,34.455],[126.04,34.461],[126.035,34.462],[126.041,34.469],[126.031,34.481],[126.032,34.484],[126.039,34.481],[126.044,34.491],[126.05,34.493],[126.047,34.496],[126.055,34.499],[126.059,34.497]],[[126.239,34.933],[126.25,34.935],[126.254,34.933],[126.251,34.92],[126.255,34.913],[126.246,34.917],[126.234,34.909],[126.22,34.918],[126.219,34.924],[126.227,34.937],[126.239,34.933]],[[126.275,34.969],[126.289,34.963],[126.301,34.938],[126.298,34.933],[126.288,34.937],[126.285,34.934],[126.281,34.935],[126.287,34.942],[126.28,34.949],[126.277,34.948],[126.272,34.957],[126.267,34.957],[126.263,34.952],[126.259,34.957],[126.258,34.962],[126.264,34.962],[126.263,34.969],[126.275,34.969]],[[126.02,34.766],[126.027,34.765],[126.03,34.758],[126.029,34.746],[126.025,34.74],[126.032,34.727],[126.03,34.722],[126.018,34.723],[126.012,34.734],[126.011,34.751],[126.017,34.767],[126.02,34.766]],[[127.769,34.941],[127.769,34.934],[127.747,34.933],[127.74,34.949],[127.761,34.96],[127.768,34.954],[127.766,34.941],[127.769,34.941]],[[126.252,35.006],[126.262,35.006],[126.266,35.001],[126.265,34.995],[126.27,34.994],[126.268,34.986],[126.271,34.976],[126.255,34.973],[126.244,34.975],[126.251,34.982],[126.252,34.997],[126.247,35.006],[126.252,35.006]],[[127.547,34.618],[127.551,34.618],[127.552,34.615],[127.562,34.616],[127.567,34.605],[127.551,34.602],[127.549,34.596],[127.534,34.598],[127.54,34.6],[127.539,34.609],[127.535,34.605],[127.525,34.604],[127.523,34.615],[127.529,34.618],[127.534,34.612],[127.538,34.614],[127.541,34.612],[127.545,34.613],[127.542,34.617],[127.547,34.618]],[[126.026,35.36],[126.041,35.346],[126.031,35.335],[126.026,35.336],[126.014,35.332],[126.02,35.34],[126.017,35.342],[126.012,35.34],[126.008,35.348],[126.011,35.345],[126.022,35.345],[126.023,35.347],[126.019,35.349],[126.018,35.352],[126.008,35.356],[126.0,35.352],[125.996,35.357],[126.001,35.355],[126.007,35.359],[126.021,35.356],[126.021,35.364],[126.026,35.36]],[[126.054,34.25],[126.059,34.249],[126.065,34.241],[126.061,34.232],[126.057,34.231],[126.058,34.225],[126.043,34.232],[126.035,34.219],[126.034,34.231],[126.025,34.228],[126.025,34.238],[126.037,34.239],[126.043,34.236],[126.052,34.245],[126.053,34.248],[126.048,34.254],[126.054,34.25]],[[125.969,34.639],[125.979,34.628],[125.978,34.619],[125.97,34.62],[125.965,34.628],[125.956,34.623],[125.946,34.634],[125.948,34.64],[125.953,34.637],[125.959,34.645],[125.969,34.642],[125.969,34.639]],[[126.327,34.785],[126.331,34.785],[126.32,34.759],[126.307,34.764],[126.305,34.772],[126.309,34.782],[126.314,34.781],[126.324,34.789],[126.327,34.785]],[[127.136,34.52],[127.138,34.517],[127.134,34.515],[127.131,34.506],[127.12,34.507],[127.12,34.504],[127.114,34.502],[127.11,34.509],[127.097,34.509],[127.106,34.518],[127.11,34.516],[127.111,34.519],[127.107,34.52],[127.111,34.522],[127.119,34.519],[127.121,34.513],[127.126,34.516],[127.123,34.519],[127.127,34.524],[127.136,34.52]],[[126.77,34.19],[126.764,34.189],[126.762,34.177],[126.75,34.187],[126.755,34.208],[126.763,34.212],[126.766,34.21],[126.771,34.198],[126.77,34.19]],[[127.634,34.849],[127.623,34.848],[127.614,34.858],[127.634,34.871],[127.647,34.857],[127.634,34.849]],[[127.246,34.414],[127.251,34.414],[127.248,34.41],[127.26,34.404],[127.259,34.395],[127.266,34.394],[127.26,34.397],[127.264,34.398],[127.271,34.391],[127.271,34.386],[127.275,34.385],[127.27,34.385],[127.272,34.381],[127.257,34.382],[127.248,34.388],[127.248,34.39],[127.251,34.39],[127.246,34.394],[127.253,34.395],[127.253,34.403],[127.24,34.407],[127.245,34.41],[127.236,34.411],[127.244,34.413],[127.241,34.417],[127.246,34.414]],[[125.998,34.271],[125.996,34.267],[125.999,34.265],[126.004,34.27],[126.01,34.265],[126.006,34.265],[125.999,34.26],[126.004,34.252],[125.999,34.255],[125.992,34.253],[125.992,34.261],[125.987,34.264],[125.989,34.27],[125.981,34.263],[125.977,34.268],[125.977,34.275],[125.991,34.28],[125.997,34.277],[125.998,34.271]],[[126.931,33.987],[126.937,33.979],[126.935,33.969],[126.915,33.97],[126.91,33.98],[126.911,33.984],[126.918,33.989],[126.931,33.987]],[[126.627,34.239],[126.619,34.238],[126.613,34.233],[126.609,34.237],[126.6,34.232],[126.593,34.236],[126.596,34.245],[126.613,34.251],[126.619,34.249],[126.627,34.239]],[[127.826,34.499],[127.826,34.495],[127.813,34.492],[127.825,34.485],[127.821,34.476],[127.816,34.479],[127.81,34.475],[127.81,34.481],[127.805,34.483],[127.801,34.477],[127.804,34.471],[127.796,34.474],[127.797,34.49],[127.807,34.49],[127.812,34.498],[127.826,34.499]],[[125.997,34.631],[126.004,34.631],[126.011,34.617],[126.01,34.611],[125.997,34.606],[125.999,34.611],[125.996,34.613],[125.993,34.603],[125.986,34.609],[125.989,34.612],[125.987,34.614],[125.991,34.619],[125.999,34.618],[125.991,34.622],[125.993,34.63],[125.997,34.631]],[[126.153,35.29],[126.153,35.275],[126.148,35.271],[126.138,35.271],[126.143,35.277],[126.132,35.282],[126.132,35.29],[126.14,35.294],[126.141,35.3],[126.153,35.29]],[[127.308,34.061],[127.318,34.056],[127.324,34.059],[127.327,34.052],[127.325,34.045],[127.333,34.042],[127.335,34.034],[127.313,34.04],[127.309,34.032],[127.314,34.043],[127.309,34.053],[127.303,34.058],[127.305,34.063],[127.308,34.061]],[[125.942,34.244],[125.954,34.246],[125.956,34.24],[125.939,34.229],[125.927,34.231],[125.925,34.239],[125.93,34.242],[125.929,34.245],[125.936,34.248],[125.942,34.244]],[[126.331,34.795],[126.313,34.793],[126.318,34.814],[126.329,34.815],[126.337,34.799],[126.331,34.795]],[[126.022,35.1],[126.029,35.092],[126.036,35.094],[126.032,35.09],[126.027,35.076],[126.023,35.08],[126.017,35.079],[126.019,35.081],[126.01,35.092],[126.012,35.1],[126.018,35.1],[126.015,35.105],[126.022,35.1]],[[125.293,34.393],[125.301,34.397],[125.305,34.392],[125.313,34.391],[125.315,34.385],[125.308,34.38],[125.301,34.385],[125.296,34.378],[125.285,34.394],[125.285,34.4],[125.282,34.401],[125.282,34.405],[125.287,34.404],[125.293,34.393]],[[125.456,34.743],[125.471,34.734],[125.48,34.734],[125.477,34.729],[125.48,34.726],[125.462,34.727],[125.461,34.724],[125.465,34.723],[125.467,34.718],[125.462,34.712],[125.46,34.719],[125.454,34.72],[125.449,34.725],[125.451,34.728],[125.453,34.725],[125.454,34.731],[125.457,34.73],[125.458,34.733],[125.461,34.732],[125.454,34.739],[125.456,34.743]],[[126.051,34.823],[126.059,34.822],[126.066,34.813],[126.073,34.812],[126.08,34.798],[126.078,34.795],[126.073,34.796],[126.065,34.808],[126.057,34.809],[126.055,34.814],[126.047,34.816],[126.043,34.825],[126.048,34.828],[126.051,34.823]],[[126.363,34.776],[126.376,34.771],[126.372,34.758],[126.369,34.757],[126.364,34.76],[126.362,34.752],[126.358,34.752],[126.36,34.745],[126.355,34.75],[126.349,34.75],[126.349,34.76],[126.363,34.76],[126.365,34.764],[126.355,34.778],[126.355,34.785],[126.363,34.776]],[[127.096,34.387],[127.089,34.382],[127.092,34.381],[127.092,34.377],[127.083,34.374],[127.079,34.376],[127.068,34.371],[127.075,34.381],[127.073,34.387],[127.091,34.393],[127.095,34.392],[127.096,34.387]],[[126.056,34.763],[126.063,34.75],[126.06,34.739],[126.051,34.75],[126.04,34.756],[126.048,34.766],[126.057,34.771],[126.056,34.763]],[[127.636,34.624],[127.643,34.618],[127.647,34.619],[127.655,34.609],[127.647,34.608],[127.642,34.612],[127.641,34.606],[127.631,34.609],[127.626,34.614],[127.626,34.62],[127.631,34.624],[127.636,34.624]],[[126.511,34.2],[126.519,34.199],[126.51,34.192],[126.51,34.187],[126.506,34.185],[126.5,34.187],[126.49,34.176],[126.485,34.179],[126.487,34.183],[126.494,34.185],[126.495,34.192],[126.503,34.203],[126.507,34.205],[126.511,34.2]],[[125.395,34.697],[125.394,34.693],[125.397,34.693],[125.39,34.688],[125.386,34.682],[125.381,34.68],[125.371,34.666],[125.362,34.67],[125.361,34.677],[125.369,34.681],[125.38,34.682],[125.39,34.692],[125.386,34.698],[125.393,34.697],[125.395,34.7],[125.395,34.697]],[[125.926,34.257],[125.921,34.257],[125.917,34.248],[125.917,34.254],[125.914,34.249],[125.91,34.251],[125.915,34.245],[125.913,34.241],[125.909,34.246],[125.897,34.246],[125.898,34.253],[125.905,34.259],[125.923,34.263],[125.926,34.257]],[[125.48,34.655],[125.478,34.649],[125.471,34.641],[125.466,34.64],[125.466,34.638],[125.455,34.642],[125.456,34.649],[125.464,34.656],[125.477,34.655],[125.479,34.658],[125.48,34.655]],[[125.976,34.603],[125.975,34.601],[125.985,34.604],[125.986,34.601],[125.976,34.595],[125.98,34.58],[125.97,34.577],[125.966,34.581],[125.971,34.583],[125.967,34.588],[125.974,34.59],[125.973,34.595],[125.958,34.593],[125.956,34.595],[125.959,34.599],[125.967,34.598],[125.974,34.605],[125.976,34.603]],[[127.359,34.288],[127.364,34.295],[127.37,34.293],[127.37,34.287],[127.361,34.279],[127.352,34.274],[127.348,34.275],[127.351,34.295],[127.353,34.296],[127.353,34.29],[127.359,34.288]],[[127.724,34.718],[127.732,34.719],[127.732,34.715],[127.728,34.716],[127.726,34.711],[127.74,34.707],[127.742,34.703],[127.738,34.703],[127.735,34.699],[127.72,34.705],[127.717,34.713],[127.721,34.715],[127.719,34.719],[127.725,34.722],[127.726,34.72],[127.724,34.718]],[[127.466,34.802],[127.47,34.795],[127.465,34.791],[127.47,34.787],[127.466,34.786],[127.46,34.791],[127.461,34.784],[127.458,34.79],[127.455,34.79],[127.453,34.779],[127.44,34.779],[127.449,34.788],[127.446,34.795],[127.46,34.793],[127.46,34.802],[127.466,34.802]],[[127.11,34.599],[127.111,34.596],[127.102,34.598],[127.094,34.595],[127.09,34.598],[127.089,34.605],[127.097,34.613],[127.107,34.605],[127.11,34.599]],[[127.733,34.591],[127.744,34.582],[127.734,34.575],[127.725,34.586],[127.712,34.593],[127.718,34.594],[127.722,34.589],[127.732,34.595],[127.733,34.591]],[[126.202,35.139],[126.196,35.139],[126.192,35.132],[126.181,35.13],[126.185,35.136],[126.183,35.143],[126.201,35.148],[126.204,35.145],[126.202,35.139]],[[126.566,34.282],[126.571,34.282],[126.571,34.276],[126.541,34.275],[126.539,34.278],[126.542,34.283],[126.566,34.282]],[[127.139,34.308],[127.142,34.305],[127.137,34.301],[127.132,34.302],[127.128,34.299],[127.119,34.305],[127.12,34.31],[127.129,34.31],[127.126,34.315],[127.132,34.314],[127.139,34.308]],[[126.525,34.661],[126.504,34.665],[126.495,34.675],[126.503,34.676],[126.525,34.661]],[[127.398,34.283],[127.398,34.279],[127.396,34.279],[127.394,34.283],[127.388,34.28],[127.386,34.289],[127.388,34.294],[127.394,34.297],[127.401,34.294],[127.402,34.287],[127.398,34.283]],[[126.184,34.262],[126.187,34.254],[126.18,34.248],[126.181,34.237],[126.175,34.236],[126.173,34.239],[126.175,34.249],[126.182,34.263],[126.184,34.262]],[[126.015,34.361],[126.022,34.358],[126.027,34.343],[126.014,34.343],[126.013,34.349],[126.021,34.35],[126.012,34.355],[126.01,34.361],[126.015,34.361]],[[126.151,35.206],[126.147,35.202],[126.129,35.2],[126.128,35.196],[126.131,35.192],[126.122,35.189],[126.124,35.202],[126.129,35.203],[126.13,35.2],[126.156,35.212],[126.156,35.208],[126.151,35.206]],[[126.178,34.903],[126.181,34.899],[126.19,34.895],[126.189,34.889],[126.176,34.88],[126.173,34.888],[126.18,34.892],[126.175,34.901],[126.178,34.903]],[[125.296,34.453],[125.296,34.44],[125.29,34.435],[125.277,34.435],[125.283,34.439],[125.291,34.453],[125.296,34.453]],[[126.241,34.956],[126.249,34.953],[126.248,34.947],[126.241,34.944],[126.233,34.946],[126.231,34.953],[126.237,34.954],[126.239,34.958],[126.241,34.956]],[[127.724,34.573],[127.723,34.569],[127.713,34.565],[127.71,34.575],[127.725,34.58],[127.728,34.577],[127.724,34.573]],[[127.085,34.405],[127.075,34.41],[127.079,34.421],[127.077,34.427],[127.085,34.424],[127.087,34.417],[127.083,34.412],[127.085,34.405]],[[127.046,34.395],[127.052,34.393],[127.051,34.386],[127.033,34.388],[127.032,34.391],[127.037,34.395],[127.046,34.395]],[[126.605,34.101],[126.602,34.097],[126.584,34.1],[126.59,34.105],[126.591,34.11],[126.586,34.113],[126.592,34.114],[126.596,34.112],[126.595,34.108],[126.605,34.101]],[[126.379,34.877],[126.367,34.866],[126.357,34.866],[126.362,34.875],[126.379,34.877]],[[127.165,34.203],[127.156,34.203],[127.151,34.206],[127.165,34.209],[127.18,34.208],[127.176,34.204],[127.165,34.203]],[[126.144,35.093],[126.147,35.084],[126.13,35.083],[126.134,35.093],[126.144,35.093]],[[127.017,34.24],[127.012,34.242],[127.013,34.247],[127.008,34.253],[127.011,34.258],[127.02,34.252],[127.017,34.24]],[[127.015,34.282],[127.023,34.276],[127.021,34.27],[127.012,34.269],[127.009,34.28],[127.011,34.284],[127.015,34.282]],[[125.288,34.42],[125.281,34.418],[125.277,34.431],[125.281,34.433],[125.286,34.431],[125.291,34.425],[125.288,34.42]],[[127.303,34.442],[127.31,34.442],[127.308,34.439],[127.315,34.441],[127.309,34.431],[127.303,34.433],[127.304,34.436],[127.297,34.437],[127.303,34.442]],[[126.711,34.418],[126.725,34.413],[126.727,34.406],[126.722,34.407],[126.715,34.413],[126.705,34.411],[126.7,34.413],[126.711,34.418]],[[126.2,34.627],[126.219,34.625],[126.215,34.623],[126.216,34.618],[126.213,34.617],[126.198,34.621],[126.193,34.627],[126.2,34.627]],[[126.02,34.643],[126.02,34.639],[126.007,34.634],[126.002,34.641],[126.008,34.64],[126.006,34.644],[126.011,34.645],[126.02,34.643]],[[126.121,34.627],[126.126,34.619],[126.109,34.619],[126.108,34.623],[126.114,34.625],[126.115,34.629],[126.121,34.627]],[[125.971,34.38],[125.973,34.372],[125.969,34.366],[125.962,34.363],[125.962,34.375],[125.971,34.376],[125.964,34.381],[125.971,34.38]],[[125.945,34.141],[125.94,34.145],[125.939,34.153],[125.936,34.155],[125.939,34.165],[125.948,34.145],[125.945,34.141]],[[126.487,34.191],[126.478,34.177],[126.471,34.191],[126.482,34.193],[126.487,34.191]],[[125.44,34.743],[125.444,34.744],[125.451,34.739],[125.449,34.732],[125.436,34.734],[125.436,34.741],[125.44,34.743]],[[126.592,34.295],[126.594,34.291],[126.591,34.289],[126.586,34.294],[126.575,34.29],[126.581,34.298],[126.594,34.305],[126.59,34.297],[126.592,34.295]],[[127.555,34.639],[127.568,34.635],[127.569,34.627],[127.547,34.638],[127.55,34.643],[127.555,34.639]],[[127.655,34.604],[127.662,34.603],[127.654,34.598],[127.658,34.593],[127.652,34.587],[127.645,34.591],[127.651,34.595],[127.65,34.604],[127.655,34.604]],[[125.975,34.322],[125.98,34.315],[125.978,34.309],[125.972,34.307],[125.968,34.311],[125.967,34.319],[125.975,34.322]],[[126.055,34.393],[126.043,34.396],[126.039,34.403],[126.04,34.407],[126.05,34.402],[126.055,34.393]],[[127.085,34.188],[127.072,34.187],[127.068,34.192],[127.08,34.195],[127.085,34.19],[127.085,34.188]],[[127.012,34.226],[127.019,34.223],[127.014,34.223],[127.012,34.218],[126.998,34.218],[127.001,34.223],[127.012,34.226]],[[127.737,34.564],[127.741,34.563],[127.736,34.559],[127.724,34.561],[127.73,34.571],[127.736,34.569],[127.737,34.564]],[[126.964,34.466],[126.969,34.463],[126.966,34.445],[126.962,34.448],[126.965,34.452],[126.959,34.46],[126.964,34.466]],[[126.016,34.316],[126.019,34.31],[126.011,34.312],[126.005,34.306],[126.006,34.312],[125.998,34.314],[125.999,34.317],[126.016,34.316]],[[127.09,34.32],[127.081,34.322],[127.076,34.328],[127.089,34.33],[127.092,34.324],[127.09,34.32]],[[125.88,34.61],[125.883,34.612],[125.887,34.61],[125.887,34.605],[125.893,34.601],[125.892,34.596],[125.881,34.606],[125.877,34.607],[125.872,34.616],[125.88,34.61]],[[125.863,34.213],[125.866,34.21],[125.862,34.207],[125.847,34.214],[125.856,34.218],[125.863,34.213]],[[127.516,34.64],[127.516,34.626],[127.525,34.621],[127.522,34.619],[127.515,34.623],[127.509,34.633],[127.516,34.64]],[[127.547,34.63],[127.552,34.627],[127.542,34.623],[127.537,34.627],[127.538,34.624],[127.532,34.625],[127.536,34.632],[127.537,34.629],[127.543,34.633],[127.547,34.63]],[[126.1,35.256],[126.104,35.255],[126.103,35.249],[126.097,35.243],[126.092,35.243],[126.089,35.246],[126.091,35.249],[126.1,35.252],[126.1,35.256]],[[127.715,34.611],[127.726,34.608],[127.704,34.604],[127.706,34.61],[127.715,34.611]],[[126.088,34.634],[126.089,34.629],[126.076,34.634],[126.072,34.641],[126.08,34.643],[126.088,34.634]],[[127.1,34.302],[127.094,34.303],[127.094,34.307],[127.102,34.314],[127.105,34.306],[127.1,34.302]],[[127.442,34.469],[127.436,34.474],[127.446,34.483],[127.446,34.472],[127.442,34.469]],[[127.446,34.71],[127.439,34.706],[127.436,34.708],[127.437,34.712],[127.442,34.711],[127.443,34.722],[127.448,34.721],[127.446,34.71]],[[127.533,34.268],[127.541,34.268],[127.539,34.26],[127.529,34.262],[127.528,34.269],[127.533,34.268]],[[125.937,34.364],[125.932,34.368],[125.939,34.376],[125.937,34.378],[125.946,34.379],[125.937,34.364]],[[126.739,34.399],[126.743,34.402],[126.745,34.4],[126.744,34.397],[126.74,34.397],[126.743,34.39],[126.737,34.393],[126.733,34.403],[126.739,34.399]],[[126.103,34.267],[126.109,34.269],[126.112,34.261],[126.1,34.263],[126.096,34.271],[126.103,34.267]],[[126.474,34.343],[126.477,34.345],[126.478,34.343],[126.473,34.337],[126.474,34.331],[126.464,34.345],[126.474,34.343]],[[127.624,34.883],[127.631,34.88],[127.629,34.877],[127.632,34.875],[127.629,34.874],[127.623,34.88],[127.611,34.879],[127.611,34.882],[127.624,34.883]],[[127.626,34.593],[127.626,34.589],[127.623,34.591],[127.606,34.59],[127.621,34.597],[127.626,34.593]],[[126.142,34.269],[126.151,34.269],[126.152,34.261],[126.157,34.258],[126.145,34.263],[126.139,34.269],[126.142,34.269]],[[127.448,34.241],[127.444,34.244],[127.45,34.25],[127.455,34.248],[127.456,34.243],[127.448,34.241]],[[125.974,34.305],[125.982,34.301],[125.983,34.297],[125.971,34.298],[125.97,34.302],[125.974,34.305]],[[126.352,34.91],[126.356,34.907],[126.351,34.901],[126.344,34.906],[126.345,34.91],[126.352,34.913],[126.352,34.91]],[[125.953,34.353],[125.958,34.351],[125.959,34.345],[125.949,34.342],[125.947,34.344],[125.953,34.353]],[[126.09,34.248],[126.082,34.242],[126.072,34.246],[126.078,34.249],[126.09,34.248]],[[126.477,34.288],[126.478,34.282],[126.473,34.284],[126.469,34.278],[126.465,34.276],[126.47,34.288],[126.48,34.291],[126.477,34.288]],[[127.314,34.727],[127.316,34.724],[127.313,34.719],[127.306,34.72],[127.307,34.727],[127.314,34.727]],[[127.565,34.739],[127.558,34.741],[127.558,34.748],[127.562,34.75],[127.567,34.744],[127.565,34.739]],[[127.601,34.595],[127.595,34.598],[127.607,34.604],[127.601,34.595]],[[126.195,34.573],[126.188,34.576],[126.199,34.583],[126.2,34.58],[126.195,34.573]],[[125.911,34.796],[125.917,34.792],[125.911,34.787],[125.904,34.789],[125.911,34.796]],[[126.207,35.111],[126.203,35.111],[126.2,35.115],[126.205,35.122],[126.21,35.115],[126.207,35.111]],[[127.451,34.569],[127.453,34.562],[127.449,34.563],[127.448,34.568],[127.444,34.568],[127.446,34.576],[127.45,34.575],[127.451,34.569]],[[126.082,34.484],[126.078,34.487],[126.079,34.492],[126.085,34.494],[126.087,34.487],[126.082,34.484]],[[126.366,34.417],[126.371,34.416],[126.373,34.409],[126.365,34.41],[126.366,34.417]],[[126.001,35.331],[126.008,35.333],[126.011,35.328],[126.002,35.33],[125.992,35.319],[125.996,35.323],[125.999,35.333],[126.001,35.331]],[[127.418,34.785],[127.427,34.786],[127.431,34.78],[127.419,34.781],[127.415,34.787],[127.418,34.785]],[[127.089,34.464],[127.094,34.463],[127.091,34.452],[127.088,34.453],[127.089,34.462],[127.083,34.461],[127.081,34.464],[127.089,34.464]],[[126.319,35.013],[126.314,35.0],[126.311,35.007],[126.314,35.011],[126.311,35.014],[126.319,35.013]],[[127.311,34.03],[127.325,34.025],[127.309,34.024],[127.307,34.029],[127.311,34.03]],[[127.69,34.594],[127.698,34.59],[127.685,34.588],[127.68,34.594],[127.69,34.594]],[[126.0,34.598],[125.997,34.598],[125.997,34.601],[126.007,34.607],[126.007,34.6],[126.0,34.598]],[[127.446,34.538],[127.441,34.542],[127.448,34.548],[127.452,34.548],[127.446,34.538]],[[127.559,34.77],[127.567,34.768],[127.57,34.763],[127.56,34.763],[127.559,34.77]],[[126.331,34.564],[126.32,34.56],[126.323,34.567],[126.331,34.568],[126.331,34.564]],[[126.057,35.375],[126.058,35.372],[126.048,35.371],[126.047,35.368],[126.041,35.371],[126.045,35.375],[126.057,35.375]],[[125.427,34.757],[125.435,34.754],[125.438,34.749],[125.432,34.749],[125.428,34.752],[125.427,34.757]],[[126.613,34.29],[126.61,34.282],[126.606,34.282],[126.609,34.292],[126.614,34.293],[126.613,34.29]],[[126.152,34.563],[126.146,34.563],[126.147,34.569],[126.155,34.568],[126.156,34.564],[126.152,34.563]],[[125.965,34.31],[125.953,34.308],[125.951,34.31],[125.963,34.316],[125.965,34.31]],[[126.878,34.414],[126.869,34.422],[126.874,34.428],[126.878,34.414]],[[126.296,34.776],[126.29,34.778],[126.296,34.784],[126.302,34.781],[126.296,34.776]],[[127.405,34.475],[127.397,34.48],[127.405,34.481],[127.408,34.478],[127.405,34.475]],[[127.013,34.621],[127.017,34.619],[127.015,34.611],[127.012,34.61],[127.009,34.617],[127.013,34.621]],[[125.949,34.306],[125.946,34.304],[125.949,34.301],[125.944,34.301],[125.943,34.312],[125.949,34.306]],[[126.049,35.111],[126.052,35.11],[126.05,35.105],[126.042,35.113],[126.048,35.116],[126.049,35.111]],[[125.924,34.255],[125.929,34.249],[125.923,34.244],[125.921,34.254],[125.924,34.255]],[[126.547,34.199],[126.541,34.197],[126.538,34.2],[126.543,34.206],[126.547,34.199]],[[127.492,34.767],[127.504,34.755],[127.499,34.754],[127.49,34.766],[127.492,34.767]],[[126.149,34.581],[126.149,34.576],[126.136,34.58],[126.149,34.581]],[[127.201,34.219],[127.197,34.215],[127.192,34.219],[127.198,34.224],[127.201,34.219]],[[126.776,34.222],[126.771,34.223],[126.769,34.23],[126.778,34.227],[126.776,34.222]],[[125.469,34.203],[125.465,34.206],[125.466,34.212],[125.471,34.214],[125.473,34.212],[125.469,34.203]],[[126.191,34.993],[126.188,35.003],[126.196,34.996],[126.191,34.993]],[[127.704,34.71],[127.709,34.709],[127.712,34.702],[127.7,34.711],[127.704,34.71]],[[127.458,34.683],[127.455,34.687],[127.462,34.693],[127.464,34.69],[127.458,34.683]],[[126.516,34.208],[126.508,34.209],[126.515,34.219],[126.516,34.208]],[[126.304,34.589],[126.307,34.585],[126.297,34.582],[126.299,34.587],[126.304,34.589]],[[127.762,34.574],[127.755,34.577],[127.763,34.582],[127.764,34.576],[127.762,34.574]],[[126.477,34.172],[126.482,34.17],[126.48,34.164],[126.475,34.166],[126.477,34.172]],[[126.782,34.531],[126.778,34.533],[126.777,34.538],[126.785,34.535],[126.782,34.531]],[[126.568,34.128],[126.565,34.129],[126.566,34.133],[126.57,34.136],[126.573,34.129],[126.568,34.128]],[[127.417,34.582],[127.425,34.581],[127.424,34.575],[127.415,34.578],[127.417,34.582]],[[126.207,35.122],[126.2,35.128],[126.21,35.127],[126.207,35.122]],[[126.422,34.224],[126.417,34.223],[126.421,34.228],[126.418,34.233],[126.419,34.239],[126.422,34.224]],[[126.901,34.284],[126.898,34.282],[126.894,34.285],[126.896,34.29],[126.902,34.288],[126.901,34.284]],[[126.34,34.795],[126.339,34.782],[126.337,34.787],[126.333,34.787],[126.34,34.795]],[[126.232,34.996],[126.226,34.996],[126.227,35.001],[126.233,35.001],[126.232,34.996]],[[127.009,34.37],[127.004,34.373],[127.006,34.378],[127.009,34.376],[127.009,34.37]],[[126.182,34.618],[126.187,34.615],[126.184,34.611],[126.18,34.614],[126.182,34.618]],[[126.041,34.393],[126.034,34.395],[126.033,34.401],[126.039,34.399],[126.041,34.393]],[[125.847,34.22],[125.843,34.219],[125.844,34.223],[125.84,34.226],[125.848,34.225],[125.847,34.22]],[[125.871,34.602],[125.868,34.606],[125.869,34.613],[125.873,34.606],[125.871,34.602]],[[126.102,34.454],[126.093,34.456],[126.091,34.462],[126.105,34.455],[126.102,34.454]],[[126.055,34.257],[126.049,34.256],[126.048,34.261],[126.054,34.26],[126.055,34.257]],[[125.923,35.077],[125.92,35.077],[125.917,35.083],[125.921,35.084],[125.923,35.077]],[[126.0,34.288],[125.991,34.289],[125.995,34.293],[126.002,34.289],[126.0,34.288]],[[126.06,35.113],[126.066,35.109],[126.064,35.106],[126.057,35.111],[126.057,35.114],[126.06,35.113]],[[126.169,34.875],[126.165,34.881],[126.166,34.885],[126.169,34.884],[126.169,34.875]],[[127.293,34.449],[127.296,34.447],[127.289,34.441],[127.29,34.448],[127.293,34.449]],[[126.209,35.183],[126.205,35.184],[126.208,35.188],[126.214,35.186],[126.209,35.183]],[[126.864,34.297],[126.86,34.304],[126.868,34.301],[126.864,34.297]],[[126.564,34.174],[126.567,34.171],[126.559,34.171],[126.557,34.174],[126.564,34.174]],[[126.012,34.396],[126.007,34.399],[126.01,34.404],[126.014,34.4],[126.012,34.396]],[[126.254,34.943],[126.251,34.943],[126.252,34.952],[126.256,34.945],[126.254,34.943]],[[125.992,35.337],[125.997,35.338],[125.997,35.335],[125.985,35.337],[125.989,35.339],[125.992,35.337]],[[125.907,34.708],[125.902,34.71],[125.901,34.716],[125.905,34.715],[125.907,34.708]],[[125.978,34.323],[125.975,34.326],[125.978,34.331],[125.981,34.329],[125.978,34.323]],[[126.037,34.738],[126.046,34.733],[126.044,34.731],[126.034,34.736],[126.037,34.738]],[[125.303,34.462],[125.3,34.458],[125.295,34.462],[125.301,34.464],[125.303,34.462]],[[126.635,34.204],[126.631,34.207],[126.637,34.209],[126.639,34.206],[126.635,34.204]],[[127.449,34.465],[127.452,34.456],[127.442,34.466],[127.449,34.465]],[[126.111,34.492],[126.11,34.489],[126.102,34.491],[126.101,34.494],[126.111,34.492]],[[126.353,34.403],[126.351,34.404],[126.354,34.41],[126.358,34.412],[126.353,34.403]],[[126.57,34.245],[126.565,34.241],[126.561,34.248],[126.57,34.245]],[[127.036,34.405],[127.037,34.401],[127.031,34.403],[127.034,34.409],[127.036,34.405]],[[126.004,34.374],[126.002,34.377],[126.006,34.384],[126.007,34.376],[126.004,34.374]],[[126.168,34.923],[126.173,34.919],[126.171,34.917],[126.166,34.919],[126.166,34.924],[126.168,34.923]],[[126.86,34.423],[126.863,34.421],[126.857,34.419],[126.856,34.425],[126.86,34.423]],[[127.467,34.563],[127.466,34.568],[127.47,34.57],[127.471,34.565],[127.467,34.563]],[[126.162,34.22],[126.159,34.224],[126.165,34.226],[126.166,34.222],[126.162,34.22]],[[125.989,34.354],[125.989,34.348],[125.982,34.352],[125.989,34.354]],[[126.036,34.672],[126.039,34.672],[126.04,34.669],[126.034,34.667],[126.034,34.672],[126.036,34.672]],[[126.441,34.432],[126.435,34.43],[126.433,34.432],[126.438,34.435],[126.441,34.432]]]}}]}