{"type":"FeatureCollection","features":[{"type":"Feature","properties":{"sidonm":"부산광역시"},"geometry":{"type":"Polygon","coordinates":[[[128.918,35.134],[128.904,35.131],[128.903,35.137],[128.905,35.197],[128.923,35.216],[128.912,35.223],[128.905,35.22],[128.91,35.215],[128.886,35.215],[128.87,35.202],[128.882,35.183],[128.88,35.172],[128.872,35.172],[128.879,35.162],[128.875,35.152],[128.865,35.158],[128.864,35.167],[128.828,35.156],[128.794,35.158],[128.815,35.133],[128.834,35.129],[128.843,35.113],[128.837,35.102],[128.823,35.099],[128.832,35.086],[128.809,35.083],[128.831,35.08],[128.831,35.073],[128.796,35.059],[128.797,35.049],[128.812,35.04],[128.808,35.031],[128.815,35.029],[128.806,35.021],[128.826,35.014],[128.818,35.001],[128.821,34.994],[128.83,34.995],[128.827,34.988],[128.841,34.997],[128.836,35.016],[128.851,35.042],[128.846,35.06],[128.859,35.064],[128.837,35.075],[128.834,35.066],[128.835,35.08],[128.875,35.079],[128.875,35.07],[128.859,35.07],[128.882,35.06],[128.901,35.119],[128.905,35.118],[128.895,35.079],[128.912,35.079],[128.912,35.089],[128.925,35.093],[128.939,35.113],[128.918,35.134]]]}},{"type":"Feature","properties":{"sidonm":"대구광역시"},"geometry":{"type":"Polygon","coordinates":[[[128.738,35.93],[128.746,35.944],[128.739,35.955],[128.746,35.973],[128.733,35.983],[128.735,35.993],[128.726,36.005],[128.695,36.016],[128.711,36.074],[128.725,36.074],[128.729,36.081],[128.725,36.09],[128.745,36.109],[128.754,36.092],[128.765,36.101],[128.791,36.087],[128.81,36.089],[128.85,36.119],[128.851,36.138],[128.859,36.145],[128.892,36.143],[128.893,36.156],[128.9,36.163],[128.881,36.19],[128.882,36.199],[128.842,36.218],[128.804,36.21],[128.796,36.194],[128.77,36.193],[128.758,36.203],[128.746,36.194],[128.735,36.201],[128.705,36.199],[128.697,36.202],[128.7,36.209],[128.694,36.214],[128.671,36.209],[128.663,36.221],[128.634,36.209],[128.637,36.233],[128.631,36.239],[128.641,36.258],[128.636,36.261],[128.598,36.271],[128.594,36.278],[128.553,36.274],[128.546,36.292],[128.474,36.312],[128.471,36.32],[128.452,36.327],[128.438,36.314],[128.438,36.304],[128.413,36.294],[128.414,36.284],[128.427,36.276],[128.417,36.258],[128.424,36.237],[128.434,36.235],[128.441,36.218],[128.485,36.234],[128.48,36.225],[128.489,36.22],[128.504,36.185],[128.517,36.2],[128.524,36.201],[128.539,36.194],[128.549,36.178],[128.557,36.178],[128.553,36.165],[128.54,36.162],[128.55,36.151],[128.549,36.131],[128.564,36.115],[128.569,36.09],[128.564,36.071],[128.57,36.06],[128.598,36.076],[128.629,36.078],[128.629,36.051],[128.621,36.026],[128.641,36.011],[128.617,36.005],[128.591,35.979],[128.557,35.971],[128.553,35.961],[128.542,35.975],[128.529,35.98],[128.534,35.934],[128.507,35.907],[128.502,35.886],[128.491,35.898],[128.468,35.9],[128.476,35.936],[128.454,35.943],[128.452,35.936],[128.418,35.921],[128.403,35.889],[128.387,35.871],[128.39,35.85],[128.423,35.851],[128.456,35.843],[128.481,35.82],[128.469,35.808],[128.421,35.81],[128.386,35.762],[128.393,35.746],[128.432,35.726],[128.433,35.703],[128.417,35.693],[128.36,35.708],[128.351,35.703],[128.361,35.674],[128.403,35.642],[128.388,35.614],[128.372,35.609],[128.382,35.607],[128.411,35.615],[128.432,35.624],[128.447,35.638],[128.506,35.64],[128.511,35.646],[128.508,35.673],[128.533,35.682],[128.527,35.714],[128.564,35.736],[128.582,35.739],[128.589,35.732],[128.617,35.737],[128.61,35.726],[128.617,35.718],[128.614,35.711],[128.623,35.703],[128.644,35.707],[128.661,35.72],[128.683,35.721],[128.692,35.732],[128.696,35.757],[128.686,35.769],[128.683,35.79],[128.718,35.807],[128.709,35.826],[128.725,35.836],[128.722,35.856],[128.738,35.851],[128.76,35.865],[128.76,35.907],[128.738,35.93]]]}},{"type":"Feature","properties":{"sidonm":"대전광역시"},"geometry":{"type":"Polygon","coordinates":[[[127.471,36.33],[127.456,36.317],[127.448,36.319],[127.451,36.311],[127.465,36.312],[127.462,36.301],[127.44,36.313],[127.428,36.302],[127.431,36.319],[127.42,36.317],[127.417,36.323],[127.404,36.32],[127.408,36.302],[127.4,36.302],[127.392,36.314],[127.369,36.31],[127.358,36.32],[127.355,36.314],[127.361,36.305],[127.335,36.302],[127.338,36.332],[127.325,36.327],[127.312,36.333],[127.309,36.322],[127.294,36.324],[127.291,36.333],[127.268,36.332],[127.26,36.327],[127.259,36.296],[127.247,36.29],[127.256,36.278],[127.291,36.265],[127.278,36.244],[127.294,36.223],[127.303,36.222],[127.304,36.229],[127.314,36.222],[127.323,36.203],[127.333,36.2],[127.332,36.184],[127.365,36.22],[127.36,36.263],[127.372,36.272],[127.39,36.264],[127.388,36.234],[127.401,36.232],[127.411,36.218],[127.408,36.213],[127.443,36.194],[127.469,36.215],[127.468,36.223],[127.493,36.238],[127.486,36.261],[127.498,36.283],[127.489,36.301],[127.499,36.305],[127.495,36.312],[127.504,36.326],[127.501,36.339],[127.51,36.35],[127.521,36.353],[127.526,36.387],[127.539,36.397],[127.557,36.397],[127.545,36.411],[127.544,36.42],[127.516,36.422],[127.51,36.403],[127.484,36.433],[127.457,36.403],[127.451,36.381],[127.466,36.36],[127.471,36.33]]]}},{"type":"Feature","properties":{"sidonm":"충청북도"},"geometry":{"type":"Polygon","coordinates":[[[127.642,36.353],[127.642,36.361],[127.631,36.35],[127.608,36.346],[127.59,36.333],[127.584,36.336],[127.578,36.325],[127.564,36.324],[127.555,36.334],[127.558,36.331],[127.542,36.317],[127.524,36.317],[127.489,36.301],[127.498,36.283],[127.489,36.273],[127.486,36.26],[127.493,36.238],[127.518,36.241],[127.536,36.252],[127.538,36.243],[127.55,36.239],[127.547,36.23],[127.579,36.233],[127.598,36.217],[127.593,36.177],[127.602,36.162],[127.594,36.153],[127.59,36.134],[127.62,36.109],[127.618,36.093],[127.654,36.056],[127.66,36.038],[127.669,36.038],[127.671,36.052],[127.689,36.063],[127.697,36.056],[127.695,36.046],[127.702,36.035],[127.717,36.034],[127.728,36.026],[127.732,36.032],[127.74,36.025],[127.748,36.029],[127.761,36.025],[127.759,36.015],[127.765,36.012],[127.788,36.014],[127.8,36.026],[127.849,36.04],[127.877,36.022],[127.885,36.036],[127.904,36.039],[127.917,36.054],[127.936,36.051],[127.961,36.068],[127.958,36.095],[127.969,36.107],[127.966,36.118],[127.987,36.129],[127.987,36.147],[127.997,36.155],[127.976,36.187],[127.983,36.199],[128.014,36.209],[128.038,36.194],[128.063,36.199],[128.051,36.206],[128.05,36.216],[128.042,36.217],[128.03,36.24],[128.048,36.257],[128.026,36.268],[128.009,36.272],[127.982,36.264],[127.971,36.25],[127.96,36.252],[127.949,36.257],[127.947,36.267],[127.931,36.278],[127.907,36.286],[127.905,36.302],[127.89,36.29],[127.884,36.273],[127.851,36.274],[127.841,36.31],[127.853,36.332],[127.881,36.345],[127.891,36.357],[127.884,36.371],[127.859,36.374],[127.835,36.369],[127.819,36.381],[127.771,36.388],[127.762,36.394],[127.747,36.386],[127.733,36.394],[127.728,36.383],[127.711,36.382],[127.705,36.374],[127.713,36.36],[127.71,36.35],[127.701,36.346],[127.704,36.332],[127.695,36.318],[127.676,36.321],[127.665,36.346],[127.658,36.333],[127.647,36.336],[127.65,36.352],[127.642,36.353]]]}},{"type":"Feature","properties":{"sidonm":"충청남도"},"geometry":{"type":"MultiPolygon","coordinates":[[[[127.089,36.319],[127.07,36.337],[127.036,36.346],[127.035,36.358],[127.022,36.378],[127.025,36.386],[127.016,36.389],[126.991,36.372],[126.984,36.34],[126.927,36.315],[126.9,36.332],[126.875,36.323],[126.859,36.326],[126.86,36.343],[126.841,36.355],[126.845,36.364],[126.835,36.364],[126.832,36.376],[126.843,36.373],[126.849,36.387],[126.809,36.377],[126.794,36.352],[126.786,36.357],[126.752,36.356],[126.748,36.366],[126.739,36.365],[126.734,36.378],[126.704,36.367],[126.664,36.37],[126.635,36.345],[126.635,36.318],[126.597,36.331],[126.595,36.341],[126.581,36.35],[126.561,36.352],[126.515,36.327],[126.505,36.331],[126.503,36.323],[126.517,36.299],[126.526,36.298],[126.534,36.287],[126.54,36.279],[126.535,36.276],[126.54,36.278],[126.546,36.269],[126.526,36.219],[126.538,36.21],[126.538,36.199],[126.565,36.198],[126.567,36.189],[126.531,36.195],[126.52,36.166],[126.495,36.159],[126.493,36.138],[126.504,36.129],[126.506,36.149],[126.518,36.152],[126.543,36.145],[126.556,36.129],[126.571,36.141],[126.592,36.128],[126.612,36.096],[126.62,36.102],[126.631,36.1],[126.631,36.091],[126.644,36.094],[126.646,36.089],[126.633,36.082],[126.624,36.084],[126.618,36.077],[126.63,36.079],[126.632,36.055],[126.644,36.056],[126.667,36.033],[126.659,36.029],[126.664,36.02],[126.661,36.011],[126.668,36.004],[126.676,36.009],[126.735,36.001],[126.749,36.024],[126.81,36.034],[126.864,36.061],[126.874,36.083],[126.873,36.111],[126.887,36.136],[126.905,36.144],[126.923,36.139],[126.957,36.156],[126.986,36.145],[127.016,36.149],[127.024,36.137],[127.05,36.142],[127.05,36.133],[127.061,36.125],[127.061,36.093],[127.09,36.072],[127.102,36.076],[127.123,36.063],[127.134,36.07],[127.137,36.087],[127.149,36.09],[127.169,36.084],[127.182,36.095],[127.199,36.086],[127.205,36.1],[127.226,36.099],[127.243,36.085],[127.254,36.084],[127.257,36.087],[127.246,36.097],[127.252,36.112],[127.275,36.108],[127.294,36.113],[127.302,36.125],[127.314,36.119],[127.323,36.13],[127.338,36.13],[127.353,36.113],[127.348,36.098],[127.36,36.09],[127.359,36.071],[127.365,36.066],[127.36,36.056],[127.373,36.044],[127.378,36.023],[127.401,36.008],[127.435,36.028],[127.437,36.009],[127.445,36.007],[127.456,35.984],[127.468,35.988],[127.488,35.978],[127.495,35.987],[127.508,35.98],[127.536,35.995],[127.532,36.008],[127.54,36.012],[127.539,36.026],[127.532,36.041],[127.567,36.031],[127.576,36.023],[127.591,36.025],[127.613,36.001],[127.617,36.016],[127.61,36.025],[127.624,36.025],[127.628,36.032],[127.638,36.033],[127.63,36.041],[127.619,36.042],[127.621,36.063],[127.638,36.068],[127.633,36.081],[127.618,36.093],[127.62,36.109],[127.59,36.134],[127.594,36.153],[127.602,36.162],[127.593,36.177],[127.598,36.184],[127.593,36.195],[127.599,36.206],[127.598,36.217],[127.583,36.231],[127.547,36.23],[127.55,36.239],[127.534,36.251],[127.518,36.241],[127.491,36.238],[127.468,36.223],[127.469,36.215],[127.443,36.194],[127.408,36.213],[127.411,36.218],[127.401,36.232],[127.388,36.234],[127.39,36.264],[127.372,36.272],[127.36,36.263],[127.365,36.22],[127.334,36.183],[127.333,36.2],[127.323,36.203],[127.314,36.222],[127.304,36.229],[127.303,36.222],[127.294,36.223],[127.278,36.244],[127.291,36.265],[127.281,36.265],[127.249,36.283],[127.248,36.292],[127.259,36.297],[127.26,36.324],[127.24,36.347],[127.204,36.346],[127.196,36.334],[127.159,36.322],[127.143,36.307],[127.13,36.321],[127.121,36.318],[127.107,36.34],[127.089,36.319]]],[[[126.567,36.425],[126.552,36.429],[126.564,36.437],[126.561,36.451],[126.54,36.453],[126.497,36.429],[126.486,36.402],[126.504,36.392],[126.524,36.393],[126.537,36.401],[126.548,36.398],[126.57,36.421],[126.567,36.425]]],[[[126.426,36.386],[126.385,36.381],[126.383,36.367],[126.459,36.355],[126.461,36.362],[126.446,36.366],[126.434,36.385],[126.426,36.386]]],[[[126.341,36.405],[126.334,36.406],[126.331,36.393],[126.323,36.389],[126.334,36.377],[126.356,36.4],[126.354,36.405],[126.341,36.405]]],[[[126.371,36.335],[126.353,36.356],[126.34,36.329],[126.36,36.326],[126.371,36.335]]],[[[126.094,36.23],[126.091,36.237],[126.085,36.23],[126.077,36.235],[126.067,36.224],[126.092,36.225],[126.094,36.23]]],[[[126.45,36.377],[126.457,36.38],[126.445,36.39],[126.438,36.387],[126.44,36.379],[126.45,36.377]]],[[[126.368,36.378],[126.371,36.39],[126.363,36.394],[126.362,36.38],[126.368,36.378]]],[[[126.294,36.33],[126.285,36.328],[126.305,36.325],[126.294,36.33]]],[[[126.266,36.265],[126.271,36.28],[126.262,36.276],[126.266,36.265]]],[[[126.264,36.296],[126.267,36.305],[126.259,36.302],[126.26,36.295],[126.254,36.295],[126.257,36.29],[126.264,36.296]]],[[[126.603,35.991],[126.61,35.994],[126.607,36.0],[126.6,35.995],[126.603,35.991]]],[[[125.965,36.235],[125.963,36.24],[125.955,36.232],[125.962,36.229],[125.965,36.235]]],[[[126.322,36.339],[126.314,36.332],[126.326,36.337],[126.322,36.339]]],[[[126.032,36.215],[126.024,36.225],[126.032,36.21],[126.032,36.215]]],[[[126.318,36.32],[126.32,36.328],[126.314,36.324],[126.318,36.32]]],[[[126.629,36.006],[126.627,36.0],[126.633,36.0],[126.629,36.006]]]]}},{"type":"Feature","properties":{"sidonm":"경상북도"},"geometry":{"type":"Polygon","coordinates":[[[128.045,36.253],[128.03,36.24],[128.042,36.217],[128.05,36.216],[128.051,36.206],[128.063,36.199],[128.038,36.194],[128.014,36.209],[127.983,36.199],[127.976,36.187],[127.997,36.155],[127.987,36.147],[127.987,36.129],[127.966,36.118],[127.969,36.107],[127.958,36.095],[127.961,36.068],[127.936,36.051],[127.917,36.054],[127.904,36.039],[127.885,36.036],[127.876,36.021],[127.876,35.997],[127.893,35.987],[127.89,35.98],[127.896,35.978],[127.904,35.955],[127.911,35.949],[127.906,35.941],[127.883,35.929],[127.889,35.91],[127.885,35.893],[127.893,35.887],[127.92,35.893],[127.933,35.864],[127.926,35.855],[127.942,35.854],[127.951,35.861],[127.973,35.851],[127.982,35.859],[128.011,35.829],[128.031,35.836],[128.051,35.829],[128.07,35.841],[128.109,35.824],[128.125,35.823],[128.122,35.804],[128.129,35.789],[128.158,35.784],[128.164,35.777],[128.164,35.763],[128.189,35.752],[128.202,35.723],[128.203,35.686],[128.179,35.673],[128.164,35.673],[128.158,35.658],[128.161,35.654],[128.184,35.658],[128.201,35.644],[128.23,35.639],[128.236,35.641],[128.236,35.651],[128.242,35.655],[128.261,35.643],[128.28,35.652],[128.306,35.655],[128.324,35.646],[128.35,35.646],[128.363,35.629],[128.362,35.612],[128.376,35.611],[128.388,35.614],[128.403,35.642],[128.361,35.674],[128.351,35.703],[128.36,35.708],[128.417,35.693],[128.433,35.703],[128.432,35.726],[128.393,35.746],[128.386,35.762],[128.421,35.81],[128.469,35.808],[128.481,35.82],[128.456,35.843],[128.423,35.851],[128.39,35.85],[128.387,35.871],[128.403,35.889],[128.418,35.921],[128.452,35.936],[128.454,35.943],[128.476,35.936],[128.468,35.9],[128.491,35.898],[128.502,35.886],[128.507,35.907],[128.534,35.934],[128.529,35.98],[128.542,35.975],[128.553,35.961],[128.557,35.971],[128.591,35.979],[128.617,36.005],[128.641,36.011],[128.621,36.026],[128.629,36.051],[128.629,36.078],[128.598,36.076],[128.57,36.06],[128.564,36.071],[128.569,36.09],[128.564,36.115],[128.549,36.131],[128.55,36.151],[128.54,36.162],[128.553,36.165],[128.557,36.178],[128.549,36.178],[128.539,36.194],[128.524,36.201],[128.517,36.2],[128.504,36.185],[128.489,36.22],[128.48,36.225],[128.485,36.234],[128.441,36.218],[128.434,36.235],[128.424,36.237],[128.419,36.245],[128.417,36.258],[128.427,36.276],[128.411,36.288],[128.415,36.297],[128.438,36.304],[128.438,36.314],[128.455,36.327],[128.471,36.32],[128.474,36.312],[128.546,36.292],[128.553,36.274],[128.581,36.279],[128.624,36.267],[128.641,36.258],[128.631,36.239],[128.637,36.233],[128.635,36.209],[128.663,36.221],[128.671,36.209],[128.694,36.214],[128.7,36.209],[128.697,36.202],[128.705,36.199],[128.735,36.201],[128.746,36.194],[128.758,36.203],[128.77,36.193],[128.796,36.194],[128.804,36.21],[128.842,36.218],[128.882,36.199],[128.881,36.19],[128.9,36.163],[128.893,36.156],[128.892,36.143],[128.859,36.145],[128.851,36.138],[128.85,36.119],[128.798,36.085],[128.765,36.101],[128.754,36.092],[128.745,36.109],[128.725,36.09],[128.727,36.077],[128.711,36.074],[128.703,36.056],[128.695,36.016],[128.726,36.005],[128.735,35.993],[128.733,35.983],[128.746,35.973],[128.739,35.955],[128.746,35.944],[128.738,35.929],[128.758,35.913],[128.762,35.883],[128.76,35.865],[128.752,35.858],[128.738,35.851],[128.722,35.856],[128.725,35.836],[128.709,35.826],[128.718,35.807],[128.683,35.79],[128.686,35.769],[128.696,35.757],[128.691,35.731],[128.683,35.721],[128.661,35.72],[128.644,35.707],[128.623,35.703],[128.614,35.711],[128.617,35.718],[128.61,35.726],[128.617,35.737],[128.589,35.732],[128.582,35.739],[128.564,35.736],[128.527,35.714],[128.535,35.694],[128.526,35.674],[128.538,35.655],[128.537,35.624],[128.556,35.617],[128.56,35.603],[128.574,35.592],[128.601,35.581],[128.636,35.584],[128.655,35.598],[128.691,35.595],[128.703,35.579],[128.724,35.581],[128.757,35.568],[128.786,35.566],[128.797,35.575],[128.801,35.588],[128.826,35.597],[128.843,35.589],[128.852,35.595],[128.871,35.618],[128.876,35.636],[128.885,35.63],[128.898,35.632],[128.921,35.647],[128.924,35.637],[128.941,35.633],[128.95,35.664],[128.937,35.677],[128.937,35.709],[128.917,35.708],[128.906,35.722],[128.913,35.741],[128.927,35.749],[128.927,35.757],[128.946,35.781],[128.955,35.814],[128.971,35.835],[128.973,35.865],[128.966,35.878],[128.97,35.884],[128.944,35.889],[128.949,35.924],[128.928,35.923],[128.923,35.935],[128.917,35.951],[128.931,35.964],[128.925,35.974],[128.931,35.98],[128.906,36.0],[128.911,36.014],[128.903,36.037],[128.92,36.037],[128.931,36.021],[128.945,36.037],[128.956,36.038],[128.958,36.049],[128.973,36.058],[128.965,36.086],[128.977,36.1],[128.973,36.111],[129.008,36.124],[128.998,36.138],[129.008,36.15],[129.007,36.163],[128.987,36.168],[129.003,36.185],[128.99,36.233],[128.973,36.242],[128.957,36.238],[128.95,36.246],[128.934,36.249],[128.943,36.266],[128.937,36.27],[128.937,36.295],[128.931,36.306],[128.934,36.319],[128.966,36.346],[128.962,36.367],[128.984,36.408],[128.968,36.462],[128.974,36.467],[128.985,36.463],[128.975,36.483],[128.996,36.5],[128.977,36.495],[128.966,36.514],[128.948,36.503],[128.934,36.515],[128.928,36.507],[128.924,36.516],[128.915,36.516],[128.906,36.5],[128.91,36.483],[128.902,36.465],[128.866,36.478],[128.857,36.469],[128.836,36.464],[128.832,36.452],[128.813,36.455],[128.813,36.442],[128.799,36.422],[128.801,36.413],[128.793,36.402],[128.787,36.403],[128.777,36.347],[128.762,36.34],[128.745,36.35],[128.737,36.386],[128.709,36.382],[128.706,36.397],[128.696,36.404],[128.688,36.402],[128.682,36.389],[128.668,36.391],[128.665,36.378],[128.657,36.379],[128.661,36.371],[128.656,36.347],[128.642,36.35],[128.625,36.334],[128.603,36.336],[128.592,36.327],[128.569,36.332],[128.542,36.384],[128.518,36.387],[128.506,36.381],[128.495,36.358],[128.476,36.358],[128.449,36.368],[128.412,36.363],[128.402,36.355],[128.406,36.348],[128.392,36.344],[128.38,36.323],[128.351,36.351],[128.335,36.349],[128.308,36.33],[128.302,36.344],[128.284,36.347],[128.311,36.363],[128.315,36.397],[128.301,36.406],[128.277,36.397],[128.266,36.409],[128.243,36.411],[128.235,36.419],[128.236,36.433],[128.221,36.422],[128.22,36.406],[128.206,36.4],[128.194,36.384],[128.191,36.363],[128.183,36.361],[128.187,36.339],[128.174,36.333],[128.16,36.335],[128.159,36.342],[128.133,36.36],[128.135,36.364],[128.12,36.371],[128.102,36.356],[128.1,36.335],[128.091,36.326],[128.055,36.325],[128.044,36.347],[128.019,36.366],[128.016,36.379],[128.002,36.386],[127.977,36.373],[127.967,36.376],[127.957,36.361],[127.892,36.36],[127.881,36.345],[127.853,36.332],[127.841,36.31],[127.851,36.274],[127.884,36.273],[127.89,36.29],[127.905,36.302],[127.907,36.286],[127.931,36.278],[127.947,36.267],[127.949,36.257],[127.96,36.252],[127.971,36.25],[127.982,36.264],[128.01,36.272],[128.048,36.257],[128.045,36.253]]]}},{"type":"Feature","properties":{"sidonm":"경상남도"},"geometry":{"type":"MultiPolygon","coordinates":[[[[128.384,34.829],[128.386,34.814],[128.371,34.834],[128.356,34.832],[128.359,34.838],[128.354,34.843],[128.344,34.831],[128.338,34.843],[128.34,34.829],[128.333,34.834],[128.336,34.826],[128.33,34.83],[128.336,34.817],[128.349,34.825],[128.379,34.815],[128.378,34.799],[128.372,34.803],[128.364,34.796],[128.375,34.789],[128.374,34.795],[128.383,34.797],[128.38,34.793],[128.391,34.787],[128.387,34.776],[128.397,34.78],[128.397,34.765],[128.407,34.768],[128.407,34.762],[128.424,34.762],[128.436,34.782],[128.42,34.792],[128.434,34.789],[128.44,34.795],[128.432,34.806],[128.442,34.804],[128.441,34.828],[128.422,34.838],[128.426,34.845],[128.435,34.838],[128.442,34.841],[128.434,34.845],[128.452,34.847],[128.454,34.855],[128.447,34.866],[128.456,34.865],[128.452,34.873],[128.457,34.882],[128.46,34.873],[128.467,34.872],[128.469,34.888],[128.475,34.89],[128.454,34.901],[128.461,34.905],[128.453,34.915],[128.44,34.913],[128.451,34.903],[128.439,34.893],[128.445,34.889],[128.432,34.888],[128.434,34.881],[128.421,34.873],[128.424,34.91],[128.431,34.914],[128.429,34.928],[128.437,34.932],[128.426,34.942],[128.444,34.978],[128.434,34.985],[128.408,34.983],[128.408,34.994],[128.463,34.987],[128.469,34.992],[128.466,34.997],[128.479,34.993],[128.477,34.998],[128.485,34.999],[128.484,35.011],[128.492,35.005],[128.503,35.017],[128.482,35.028],[128.486,35.039],[128.475,35.042],[128.474,35.036],[128.46,35.048],[128.479,35.047],[128.482,35.053],[128.475,35.055],[128.482,35.066],[128.475,35.066],[128.469,35.076],[128.461,35.065],[128.452,35.072],[128.445,35.068],[128.442,35.06],[128.45,35.052],[128.399,35.041],[128.389,35.035],[128.389,35.017],[128.355,35.01],[128.369,35.023],[128.374,35.022],[128.369,35.031],[128.382,35.035],[128.373,35.042],[128.373,35.05],[128.383,35.046],[128.412,35.062],[128.415,35.055],[128.428,35.055],[128.44,35.072],[128.462,35.072],[128.469,35.082],[128.478,35.077],[128.479,35.082],[128.449,35.096],[128.451,35.106],[128.471,35.097],[128.49,35.107],[128.504,35.098],[128.519,35.097],[128.537,35.119],[128.536,35.108],[128.547,35.107],[128.541,35.102],[128.545,35.092],[128.581,35.089],[128.562,35.083],[128.562,35.067],[128.581,35.064],[128.587,35.072],[128.593,35.069],[128.578,35.061],[128.574,35.052],[128.604,35.055],[128.637,35.068],[128.626,35.075],[128.614,35.07],[128.607,35.075],[128.625,35.088],[128.603,35.104],[128.601,35.12],[128.592,35.121],[128.601,35.124],[128.601,35.133],[128.575,35.133],[128.58,35.138],[128.587,35.13],[128.598,35.142],[128.586,35.146],[128.592,35.158],[128.565,35.185],[128.586,35.21],[128.62,35.212],[128.609,35.212],[128.589,35.2],[128.593,35.173],[128.605,35.161],[128.611,35.163],[128.614,35.145],[128.607,35.137],[128.622,35.136],[128.625,35.147],[128.647,35.15],[128.644,35.141],[128.659,35.136],[128.667,35.119],[128.678,35.125],[128.671,35.142],[128.69,35.147],[128.687,35.142],[128.696,35.138],[128.701,35.116],[128.686,35.107],[128.689,35.101],[128.696,35.097],[128.713,35.107],[128.714,35.095],[128.724,35.098],[128.729,35.09],[128.744,35.1],[128.735,35.089],[128.744,35.084],[128.742,35.078],[128.752,35.082],[128.766,35.067],[128.765,35.083],[128.78,35.082],[128.784,35.097],[128.766,35.098],[128.763,35.105],[128.773,35.099],[128.785,35.114],[128.789,35.113],[128.788,35.098],[128.802,35.099],[128.782,35.086],[128.785,35.079],[128.832,35.086],[128.823,35.099],[128.837,35.102],[128.843,35.113],[128.834,35.129],[128.815,35.133],[128.794,35.158],[128.828,35.156],[128.864,35.167],[128.865,35.158],[128.876,35.152],[128.879,35.162],[128.872,35.172],[128.88,35.172],[128.882,35.183],[128.87,35.202],[128.884,35.214],[128.91,35.215],[128.905,35.22],[128.919,35.224],[128.918,35.235],[128.932,35.243],[128.923,35.249],[128.921,35.265],[128.936,35.278],[128.963,35.28],[128.968,35.289],[128.965,35.305],[129.006,35.346],[129.003,35.356],[129.008,35.364],[129.0,35.37],[129.001,35.379],[128.985,35.385],[128.977,35.399],[128.983,35.407],[128.983,35.419],[129.003,35.425],[128.991,35.441],[128.99,35.456],[129.001,35.475],[129.018,35.48],[129.024,35.497],[129.052,35.516],[129.057,35.531],[129.009,35.524],[129.01,35.528],[128.994,35.529],[128.998,35.542],[128.993,35.548],[128.981,35.546],[128.971,35.561],[129.02,35.585],[129.026,35.601],[129.022,35.614],[129.003,35.62],[128.979,35.608],[128.96,35.615],[128.941,35.633],[128.924,35.637],[128.92,35.647],[128.898,35.632],[128.875,35.635],[128.871,35.618],[128.852,35.595],[128.843,35.589],[128.826,35.597],[128.801,35.588],[128.797,35.575],[128.786,35.566],[128.757,35.568],[128.724,35.581],[128.703,35.579],[128.691,35.595],[128.655,35.598],[128.636,35.584],[128.601,35.581],[128.574,35.592],[128.56,35.603],[128.556,35.617],[128.537,35.624],[128.538,35.655],[128.526,35.682],[128.508,35.673],[128.511,35.646],[128.506,35.639],[128.447,35.638],[128.432,35.624],[128.378,35.607],[128.362,35.612],[128.363,35.629],[128.349,35.646],[128.324,35.646],[128.297,35.656],[128.296,35.651],[128.28,35.652],[128.261,35.643],[128.244,35.656],[128.23,35.639],[128.201,35.644],[128.184,35.658],[128.161,35.654],[128.164,35.673],[128.179,35.673],[128.203,35.686],[128.202,35.723],[128.189,35.752],[128.164,35.763],[128.164,35.777],[128.158,35.784],[128.129,35.789],[128.122,35.804],[128.125,35.823],[128.109,35.824],[128.07,35.841],[128.051,35.829],[128.031,35.836],[128.011,35.829],[127.982,35.859],[127.973,35.851],[127.951,35.861],[127.942,35.854],[127.926,35.855],[127.933,35.863],[127.93,35.878],[127.92,35.893],[127.893,35.887],[127.885,35.893],[127.888,35.915],[127.871,35.905],[127.86,35.906],[127.844,35.869],[127.825,35.868],[127.813,35.853],[127.804,35.857],[127.758,35.837],[127.744,35.844],[127.719,35.797],[127.7,35.789],[127.679,35.769],[127.665,35.769],[127.661,35.71],[127.645,35.698],[127.64,35.672],[127.62,35.646],[127.635,35.618],[127.613,35.609],[127.608,35.595],[127.611,35.585],[127.587,35.563],[127.585,35.555],[127.612,35.536],[127.629,35.536],[127.624,35.527],[127.651,35.498],[127.653,35.485],[127.637,35.478],[127.637,35.459],[127.645,35.45],[127.673,35.444],[127.666,35.436],[127.662,35.417],[127.635,35.4],[127.622,35.373],[127.61,35.366],[127.623,35.344],[127.62,35.332],[127.604,35.318],[127.576,35.306],[127.591,35.275],[127.61,35.262],[127.615,35.25],[127.621,35.189],[127.645,35.161],[127.66,35.158],[127.694,35.132],[127.695,35.103],[127.718,35.082],[127.737,35.078],[127.742,35.06],[127.767,35.055],[127.769,35.034],[127.787,35.016],[127.78,34.988],[127.765,34.973],[127.786,34.94],[127.807,34.944],[127.807,34.939],[127.816,34.939],[127.81,34.948],[127.818,34.949],[127.819,34.944],[127.839,34.95],[127.841,34.962],[127.848,34.946],[127.858,34.951],[127.875,34.947],[127.894,34.958],[127.902,34.955],[127.901,34.969],[127.912,34.972],[127.909,34.983],[127.918,34.98],[127.923,34.989],[127.917,34.995],[127.923,35.014],[127.94,35.004],[127.936,34.998],[127.944,34.999],[127.932,34.992],[127.934,34.985],[127.938,34.989],[127.944,34.984],[127.935,34.982],[127.948,34.977],[127.953,34.976],[127.949,34.984],[127.957,34.984],[127.964,34.994],[127.972,34.994],[127.983,34.978],[127.992,34.981],[127.989,34.989],[127.995,34.985],[127.997,34.996],[128.0,34.984],[128.005,34.988],[128.008,34.982],[128.008,34.996],[128.015,34.991],[128.019,35.01],[128.008,35.013],[128.009,35.023],[127.996,35.038],[127.976,35.033],[127.985,35.045],[127.995,35.046],[128.009,35.03],[128.021,35.028],[128.033,35.068],[128.056,35.087],[128.056,35.08],[128.062,35.079],[128.043,35.064],[128.038,35.051],[128.042,35.032],[128.035,35.023],[128.038,35.018],[128.045,35.024],[128.05,35.016],[128.038,34.996],[128.052,34.977],[128.03,34.959],[128.052,34.931],[128.041,34.923],[128.035,34.927],[128.037,34.919],[128.053,34.93],[128.075,34.923],[128.088,34.926],[128.086,34.918],[128.096,34.926],[128.098,34.92],[128.1,34.925],[128.113,34.924],[128.119,34.921],[128.112,34.923],[128.102,34.914],[128.122,34.904],[128.133,34.888],[128.141,34.893],[128.142,34.903],[128.151,34.899],[128.147,34.905],[128.156,34.908],[128.17,34.896],[128.175,34.896],[128.175,34.906],[128.184,34.895],[128.187,34.905],[128.187,34.893],[128.201,34.894],[128.197,34.913],[128.204,34.925],[128.196,34.936],[128.203,34.94],[128.209,34.936],[128.213,34.943],[128.218,34.939],[128.223,34.946],[128.227,34.941],[128.245,34.944],[128.245,34.936],[128.249,34.943],[128.257,34.936],[128.267,34.939],[128.269,34.93],[128.257,34.929],[128.268,34.918],[128.266,34.912],[128.274,34.91],[128.273,34.899],[128.283,34.904],[128.282,34.916],[128.289,34.91],[128.301,34.912],[128.305,34.919],[128.3,34.936],[128.321,34.944],[128.32,34.961],[128.332,34.954],[128.334,34.944],[128.34,34.948],[128.342,34.941],[128.335,34.936],[128.344,34.939],[128.342,34.925],[128.354,34.919],[128.355,34.909],[128.346,34.905],[128.309,34.909],[128.298,34.903],[128.317,34.88],[128.328,34.886],[128.328,34.875],[128.34,34.882],[128.341,34.874],[128.348,34.873],[128.349,34.887],[128.357,34.88],[128.356,34.871],[128.373,34.869],[128.377,34.871],[128.372,34.883],[128.38,34.886],[128.376,34.891],[128.385,34.882],[128.381,34.873],[128.39,34.875],[128.385,34.868],[128.42,34.864],[128.413,34.859],[128.389,34.863],[128.377,34.852],[128.371,34.853],[128.377,34.845],[128.372,34.843],[128.388,34.84],[128.379,34.836],[128.391,34.835],[128.394,34.829],[128.399,34.835],[128.405,34.832],[128.394,34.825],[128.384,34.829]]],[[[128.674,34.786],[128.667,34.801],[128.667,34.811],[128.673,34.813],[128.692,34.808],[128.691,34.797],[128.699,34.797],[128.696,34.807],[128.708,34.813],[128.714,34.802],[128.709,34.795],[128.741,34.787],[128.737,34.799],[128.721,34.816],[128.725,34.834],[128.719,34.838],[128.71,34.829],[128.701,34.839],[128.717,34.849],[128.726,34.841],[128.735,34.843],[128.724,34.865],[128.734,34.862],[128.744,34.868],[128.739,34.878],[128.753,34.894],[128.74,34.885],[128.732,34.892],[128.715,34.875],[128.696,34.881],[128.697,34.891],[128.717,34.901],[128.711,34.911],[128.724,34.914],[128.716,34.936],[128.72,34.941],[128.726,34.937],[128.727,34.947],[128.716,34.957],[128.717,34.965],[128.697,34.973],[128.701,34.991],[128.694,34.997],[128.708,34.997],[128.702,35.006],[128.718,35.009],[128.722,35.024],[128.713,35.032],[128.699,35.037],[128.693,35.031],[128.677,35.041],[128.684,35.035],[128.675,35.032],[128.675,35.021],[128.669,35.026],[128.667,35.008],[128.682,35.007],[128.682,35.002],[128.673,35.0],[128.679,34.987],[128.671,34.999],[128.666,34.994],[128.661,35.001],[128.659,34.994],[128.666,34.99],[128.655,34.991],[128.653,34.984],[128.658,34.98],[128.647,34.981],[128.646,34.994],[128.653,34.996],[128.647,35.0],[128.655,35.011],[128.649,35.023],[128.644,35.013],[128.636,35.015],[128.631,35.009],[128.634,35.0],[128.617,34.999],[128.615,34.995],[128.626,34.993],[128.611,34.984],[128.613,34.972],[128.622,34.983],[128.629,34.976],[128.65,34.979],[128.646,34.967],[128.65,34.959],[128.631,34.968],[128.632,34.963],[128.616,34.964],[128.606,34.958],[128.612,34.965],[128.606,34.97],[128.597,34.966],[128.597,34.952],[128.583,34.948],[128.611,34.923],[128.608,34.915],[128.615,34.917],[128.624,34.892],[128.607,34.9],[128.607,34.906],[128.593,34.904],[128.586,34.914],[128.571,34.909],[128.576,34.901],[128.568,34.899],[128.527,34.924],[128.514,34.909],[128.5,34.911],[128.506,34.904],[128.497,34.907],[128.501,34.902],[128.492,34.901],[128.472,34.873],[128.476,34.856],[128.481,34.855],[128.482,34.84],[128.497,34.833],[128.508,34.838],[128.501,34.825],[128.51,34.809],[128.524,34.817],[128.519,34.822],[128.528,34.821],[128.521,34.827],[128.528,34.83],[128.524,34.832],[128.563,34.833],[128.563,34.844],[128.573,34.854],[128.589,34.847],[128.587,34.841],[128.576,34.843],[128.595,34.829],[128.584,34.817],[128.584,34.797],[128.538,34.788],[128.543,34.775],[128.557,34.789],[128.569,34.786],[128.552,34.775],[128.555,34.766],[128.564,34.766],[128.576,34.778],[128.597,34.777],[128.591,34.77],[128.601,34.765],[128.579,34.762],[128.577,34.741],[128.607,34.731],[128.583,34.723],[128.588,34.718],[128.58,34.716],[128.577,34.702],[128.591,34.709],[128.61,34.701],[128.626,34.713],[128.638,34.709],[128.642,34.715],[128.621,34.73],[128.627,34.736],[128.629,34.73],[128.652,34.734],[128.654,34.739],[128.671,34.739],[128.676,34.728],[128.676,34.736],[128.684,34.738],[128.678,34.744],[128.653,34.743],[128.638,34.763],[128.646,34.778],[128.658,34.774],[128.674,34.786]]],[[[127.926,34.831],[127.917,34.836],[127.898,34.875],[127.903,34.885],[127.926,34.891],[127.923,34.899],[127.93,34.915],[127.94,34.912],[127.93,34.916],[127.924,34.926],[127.93,34.924],[127.928,34.932],[127.921,34.934],[127.923,34.942],[127.909,34.939],[127.891,34.947],[127.87,34.942],[127.865,34.932],[127.857,34.934],[127.854,34.927],[127.859,34.922],[127.85,34.914],[127.864,34.904],[127.847,34.901],[127.842,34.907],[127.842,34.898],[127.826,34.903],[127.831,34.895],[127.824,34.894],[127.833,34.892],[127.824,34.884],[127.83,34.88],[127.827,34.874],[127.819,34.876],[127.807,34.857],[127.813,34.835],[127.833,34.811],[127.835,34.792],[127.845,34.787],[127.852,34.769],[127.841,34.767],[127.837,34.75],[127.853,34.747],[127.851,34.738],[127.862,34.732],[127.857,34.728],[127.892,34.721],[127.913,34.736],[127.904,34.766],[127.949,34.777],[127.954,34.772],[127.944,34.747],[127.947,34.73],[127.954,34.731],[127.949,34.726],[127.958,34.719],[127.953,34.715],[127.957,34.709],[127.985,34.709],[127.989,34.72],[127.992,34.714],[128.008,34.711],[128.008,34.721],[128.014,34.724],[128.026,34.719],[128.02,34.701],[128.029,34.708],[128.044,34.702],[128.053,34.711],[128.06,34.709],[128.035,34.724],[128.036,34.731],[128.059,34.751],[128.049,34.781],[128.059,34.794],[128.052,34.794],[128.052,34.8],[128.065,34.8],[128.067,34.818],[128.03,34.835],[128.019,34.83],[127.992,34.833],[127.971,34.816],[127.958,34.814],[127.966,34.809],[127.954,34.805],[127.941,34.816],[127.945,34.829],[127.926,34.831]]],[[[128.032,34.921],[128.007,34.92],[127.988,34.903],[127.99,34.895],[127.961,34.87],[127.969,34.844],[128.003,34.836],[128.019,34.838],[128.02,34.843],[128.024,34.839],[128.025,34.846],[128.063,34.83],[128.071,34.836],[128.077,34.828],[128.087,34.828],[128.077,34.844],[128.062,34.844],[128.062,34.856],[128.053,34.853],[128.067,34.87],[128.06,34.883],[128.048,34.882],[128.05,34.888],[128.042,34.893],[128.048,34.897],[128.034,34.897],[128.021,34.882],[128.024,34.866],[128.011,34.868],[128.016,34.893],[128.026,34.902],[128.032,34.921]]],[[[128.484,34.816],[128.468,34.818],[128.464,34.811],[128.469,34.805],[128.478,34.806],[128.486,34.798],[128.473,34.804],[128.466,34.788],[128.469,34.801],[128.461,34.806],[128.459,34.786],[128.473,34.776],[128.469,34.761],[128.491,34.757],[128.509,34.767],[128.511,34.779],[128.505,34.785],[128.493,34.783],[128.492,34.801],[128.485,34.807],[128.49,34.813],[128.479,34.809],[128.484,34.816]]],[[[128.238,34.838],[128.217,34.839],[128.207,34.827],[128.211,34.822],[128.201,34.825],[128.198,34.818],[128.214,34.815],[128.209,34.808],[128.224,34.808],[128.226,34.8],[128.237,34.801],[128.242,34.795],[128.246,34.801],[128.238,34.811],[128.255,34.808],[128.266,34.815],[128.238,34.838]]],[[[128.236,34.652],[128.228,34.649],[128.235,34.641],[128.224,34.638],[128.229,34.631],[128.237,34.635],[128.235,34.629],[128.242,34.62],[128.231,34.617],[128.239,34.611],[128.263,34.627],[128.276,34.619],[128.29,34.62],[128.287,34.627],[128.299,34.639],[128.284,34.639],[128.275,34.625],[128.265,34.634],[128.274,34.64],[128.236,34.652]]],[[[128.203,34.859],[128.17,34.854],[128.167,34.842],[128.182,34.837],[128.18,34.829],[128.19,34.826],[128.204,34.842],[128.233,34.845],[128.203,34.859]]],[[[128.535,34.942],[128.522,34.956],[128.537,34.969],[128.519,34.976],[128.512,34.964],[128.518,34.954],[128.512,34.94],[128.525,34.927],[128.531,34.931],[128.527,34.94],[128.535,34.942]]],[[[128.182,34.709],[128.176,34.712],[128.168,34.702],[128.184,34.69],[128.202,34.691],[128.199,34.706],[128.182,34.709]]],[[[128.517,34.766],[128.51,34.766],[128.511,34.759],[128.551,34.748],[128.561,34.751],[128.554,34.754],[128.559,34.76],[128.532,34.758],[128.534,34.765],[128.517,34.766]]],[[[128.499,34.746],[128.492,34.75],[128.466,34.741],[128.495,34.731],[128.502,34.738],[128.504,34.732],[128.514,34.734],[128.499,34.746]]],[[[128.471,34.731],[128.464,34.736],[128.456,34.73],[128.46,34.718],[128.45,34.714],[128.451,34.704],[128.467,34.707],[128.461,34.717],[128.471,34.731]]],[[[128.53,34.802],[128.541,34.807],[128.547,34.823],[128.534,34.822],[128.526,34.811],[128.53,34.802]]],[[[128.353,34.652],[128.344,34.65],[128.346,34.641],[128.362,34.643],[128.379,34.633],[128.379,34.645],[128.371,34.641],[128.353,34.652]]],[[[127.965,34.982],[127.964,34.971],[127.973,34.966],[127.995,34.969],[127.987,34.973],[127.985,34.967],[127.965,34.982]]],[[[128.564,35.064],[128.542,35.069],[128.558,35.053],[128.568,35.054],[128.564,35.064]]],[[[128.252,34.677],[128.23,34.673],[128.218,34.68],[128.222,34.673],[128.244,34.668],[128.259,34.674],[128.252,34.677]]],[[[128.306,34.754],[128.295,34.763],[128.287,34.759],[128.292,34.748],[128.303,34.746],[128.298,34.75],[128.306,34.754]]],[[[128.136,34.834],[128.125,34.831],[128.142,34.825],[128.144,34.831],[128.136,34.834]]],[[[128.084,34.896],[128.081,34.907],[128.073,34.91],[128.071,34.888],[128.08,34.889],[128.076,34.894],[128.084,34.896]]],[[[128.58,34.645],[128.577,34.651],[128.56,34.636],[128.572,34.633],[128.586,34.643],[128.58,34.645]]],[[[128.475,34.918],[128.465,34.921],[128.466,34.906],[128.476,34.905],[128.475,34.918]]],[[[128.503,34.802],[128.494,34.794],[128.505,34.787],[128.511,34.8],[128.503,34.802]]],[[[128.374,34.782],[128.368,34.786],[128.355,34.778],[128.371,34.775],[128.374,34.782]]],[[[128.469,34.833],[128.464,34.834],[128.463,34.827],[128.477,34.821],[128.479,34.825],[128.469,34.833]]],[[[128.424,34.749],[128.424,34.756],[128.42,34.747],[128.399,34.746],[128.405,34.742],[128.424,34.749]]],[[[128.405,34.737],[128.399,34.741],[128.392,34.736],[128.404,34.729],[128.405,34.737]]],[[[128.652,35.106],[128.648,35.1],[128.661,35.094],[128.662,35.105],[128.652,35.106]]],[[[128.53,34.735],[128.52,34.729],[128.536,34.73],[128.53,34.735]]],[[[128.353,34.82],[128.346,34.817],[128.369,34.811],[128.353,34.82]]],[[[128.224,34.924],[128.225,34.934],[128.218,34.927],[128.224,34.924]]],[[[128.047,34.681],[128.052,34.687],[128.048,34.692],[128.043,34.685],[128.047,34.681]]],[[[128.552,34.622],[128.556,34.631],[128.545,34.628],[128.552,34.622]]],[[[128.428,34.72],[128.427,34.733],[128.423,34.727],[128.428,34.72]]],[[[128.306,34.624],[128.299,34.618],[128.309,34.616],[128.306,34.624]]],[[[127.942,34.723],[127.942,34.731],[127.935,34.731],[127.942,34.723]]],[[[128.188,34.565],[128.186,34.572],[128.179,34.561],[128.188,34.565]]],[[[128.052,34.694],[128.056,34.7],[128.048,34.698],[128.052,34.694]]],[[[128.49,34.935],[128.488,34.941],[128.485,34.93],[128.492,34.931],[128.49,34.935]]],[[[128.489,34.956],[128.485,34.96],[128.49,34.966],[128.484,34.966],[128.484,34.955],[128.489,34.956]]],[[[128.728,34.97],[128.73,34.965],[128.736,34.968],[128.728,34.97]]],[[[128.754,34.827],[128.746,34.814],[128.753,34.817],[128.754,34.827]]],[[[128.584,34.681],[128.578,34.689],[128.574,34.683],[128.584,34.681]]],[[[128.52,34.792],[128.519,34.798],[128.511,34.796],[128.52,34.792]]],[[[128.718,34.788],[128.711,34.788],[128.712,34.781],[128.718,34.788]]],[[[128.385,34.74],[128.378,34.738],[128.392,34.737],[128.385,34.74]]],[[[128.491,35.077],[128.495,35.081],[128.488,35.084],[128.491,35.077]]],[[[128.572,35.057],[128.575,35.063],[128.57,35.062],[128.572,35.057]]],[[[127.971,34.984],[127.966,34.99],[127.966,34.983],[127.971,34.984]]],[[[128.712,34.767],[128.718,34.769],[128.71,34.773],[128.712,34.767]]],[[[128.549,34.696],[128.549,34.701],[128.541,34.7],[128.549,34.696]]],[[[128.52,35.097],[128.514,35.096],[128.517,35.089],[128.52,35.097]]],[[[127.834,34.928],[127.833,34.939],[127.829,34.93],[127.834,34.928]]],[[[128.322,34.927],[128.319,34.921],[128.325,34.923],[128.322,34.927]]],[[[128.495,34.809],[128.499,34.811],[128.491,34.813],[128.495,34.809]]],[[[127.82,34.913],[127.821,34.919],[127.815,34.914],[127.82,34.913]]],[[[128.723,35.084],[128.723,35.089],[128.718,35.085],[128.723,35.084]]],[[[128.268,34.665],[128.267,34.67],[128.263,34.667],[128.268,34.665]]]]}},{"type":"Feature","properties":{"sidonm":"제주특별자치도"},"geometry":{"type":"MultiPolygon","coordinates":[[[[126.903,33.483],[126.918,33.487],[126.912,33.494],[126.914,33.508],[126.9,33.512],[126.908,33.521],[126.903,33.526],[126.872,33.532],[126.859,33.526],[126.833,33.543],[126.828,33.56],[126.814,33.563],[126.797,33.557],[126.78,33.567],[126.74,33.556],[126.731,33.563],[126.715,33.555],[126.678,33.554],[126.666,33.544],[126.644,33.557],[126.633,33.537],[126.597,33.538],[126.584,33.527],[126.562,33.528],[126.551,33.521],[126.54,33.531],[126.528,33.519],[126.493,33.521],[126.48,33.51],[126.455,33.505],[126.447,33.495],[126.456,33.484],[126.482,33.497],[126.502,33.497],[126.5,33.452],[126.507,33.411],[126.5,33.414],[126.506,33.399],[126.522,33.388],[126.525,33.374],[126.525,33.385],[126.539,33.403],[126.539,33.421],[126.518,33.451],[126.515,33.472],[126.52,33.478],[126.53,33.477],[126.532,33.485],[126.542,33.488],[126.541,33.494],[126.558,33.486],[126.565,33.488],[126.564,33.494],[126.582,33.497],[126.588,33.485],[126.576,33.479],[126.59,33.449],[126.594,33.429],[126.589,33.416],[126.597,33.401],[126.591,33.391],[126.56,33.38],[126.558,33.371],[126.592,33.374],[126.66,33.402],[126.686,33.4],[126.687,33.412],[126.707,33.422],[126.733,33.425],[126.757,33.418],[126.789,33.442],[126.822,33.447],[126.824,33.453],[126.903,33.483]]],[[[126.958,33.515],[126.962,33.519],[126.955,33.526],[126.947,33.523],[126.943,33.495],[126.967,33.489],[126.971,33.498],[126.967,33.511],[126.973,33.514],[126.958,33.515]]],[[[126.343,33.955],[126.303,33.95],[126.321,33.93],[126.329,33.93],[126.324,33.941],[126.342,33.946],[126.338,33.953],[126.343,33.955]]],[[[126.296,33.965],[126.284,33.968],[126.289,33.963],[126.282,33.962],[126.299,33.952],[126.296,33.965]]],[[[126.337,34.013],[126.331,34.011],[126.352,34.007],[126.337,34.013]]],[[[126.251,33.986],[126.25,33.991],[126.246,33.988],[126.251,33.986]]],[[[126.325,33.909],[126.326,33.914],[126.32,33.915],[126.325,33.909]]]]}},{"type":"Feature","properties":{"sidonm":"전북특별자치도"},"geometry":{"type":"MultiPolygon","coordinates":[[[[126.651,35.884],[126.668,35.883],[126.676,35.895],[126.725,35.886],[126.736,35.892],[126.77,35.889],[126.791,35.905],[126.838,35.91],[126.825,35.898],[126.801,35.894],[126.799,35.874],[126.789,35.865],[126.731,35.867],[126.699,35.856],[126.685,35.844],[126.777,35.801],[126.768,35.785],[126.777,35.758],[126.769,35.774],[126.728,35.794],[126.632,35.8],[126.623,35.789],[126.627,35.749],[126.594,35.712],[126.57,35.695],[126.554,35.7],[126.533,35.691],[126.528,35.677],[126.504,35.659],[126.484,35.656],[126.479,35.645],[126.456,35.637],[126.468,35.631],[126.46,35.622],[126.47,35.62],[126.462,35.621],[126.461,35.614],[126.466,35.599],[126.479,35.602],[126.492,35.586],[126.509,35.579],[126.515,35.587],[126.516,35.581],[126.529,35.579],[126.541,35.588],[126.593,35.588],[126.598,35.594],[126.602,35.587],[126.617,35.585],[126.625,35.593],[126.636,35.593],[126.637,35.6],[126.642,35.592],[126.651,35.595],[126.66,35.59],[126.674,35.568],[126.669,35.566],[126.667,35.554],[126.634,35.575],[126.617,35.57],[126.617,35.557],[126.594,35.535],[126.591,35.542],[126.567,35.543],[126.545,35.527],[126.519,35.534],[126.501,35.524],[126.497,35.51],[126.484,35.523],[126.462,35.481],[126.441,35.45],[126.435,35.451],[126.429,35.433],[126.446,35.435],[126.452,35.427],[126.477,35.425],[126.492,35.411],[126.49,35.395],[126.477,35.386],[126.497,35.373],[126.494,35.351],[126.513,35.362],[126.52,35.348],[126.514,35.327],[126.531,35.307],[126.551,35.314],[126.573,35.31],[126.585,35.301],[126.59,35.312],[126.581,35.323],[126.586,35.331],[126.604,35.336],[126.625,35.321],[126.645,35.32],[126.644,35.327],[126.659,35.334],[126.667,35.352],[126.685,35.345],[126.691,35.352],[126.699,35.35],[126.705,35.365],[126.719,35.365],[126.731,35.377],[126.73,35.395],[126.722,35.4],[126.754,35.416],[126.752,35.436],[126.739,35.451],[126.75,35.451],[126.773,35.468],[126.814,35.469],[126.814,35.483],[126.826,35.486],[126.842,35.48],[126.84,35.462],[126.851,35.466],[126.869,35.461],[126.905,35.441],[126.897,35.436],[126.903,35.421],[126.921,35.411],[126.917,35.402],[126.934,35.406],[126.93,35.4],[126.936,35.394],[126.977,35.4],[126.97,35.427],[126.982,35.426],[126.985,35.437],[126.994,35.44],[127.0,35.462],[127.014,35.457],[127.035,35.466],[127.037,35.434],[127.052,35.427],[127.047,35.403],[127.027,35.4],[127.027,35.395],[127.046,35.377],[127.056,35.385],[127.07,35.366],[127.065,35.357],[127.07,35.34],[127.052,35.34],[127.043,35.322],[127.106,35.299],[127.145,35.309],[127.159,35.327],[127.18,35.332],[127.182,35.338],[127.187,35.323],[127.201,35.316],[127.216,35.317],[127.216,35.33],[127.225,35.337],[127.26,35.312],[127.288,35.314],[127.309,35.303],[127.356,35.321],[127.384,35.303],[127.398,35.312],[127.402,35.325],[127.431,35.36],[127.473,35.366],[127.486,35.358],[127.501,35.359],[127.544,35.328],[127.584,35.309],[127.62,35.332],[127.623,35.344],[127.61,35.366],[127.622,35.373],[127.635,35.4],[127.662,35.417],[127.666,35.436],[127.673,35.443],[127.645,35.45],[127.637,35.459],[127.637,35.478],[127.653,35.486],[127.651,35.498],[127.624,35.527],[127.629,35.536],[127.612,35.536],[127.585,35.555],[127.587,35.565],[127.611,35.585],[127.608,35.595],[127.613,35.609],[127.635,35.618],[127.62,35.646],[127.64,35.672],[127.645,35.698],[127.661,35.71],[127.664,35.767],[127.679,35.769],[127.7,35.789],[127.719,35.797],[127.744,35.844],[127.758,35.837],[127.772,35.839],[127.804,35.857],[127.813,35.853],[127.825,35.868],[127.842,35.867],[127.853,35.881],[127.851,35.89],[127.86,35.906],[127.871,35.905],[127.888,35.915],[127.883,35.929],[127.906,35.941],[127.911,35.949],[127.904,35.955],[127.896,35.978],[127.89,35.98],[127.893,35.987],[127.876,35.997],[127.877,36.022],[127.865,36.026],[127.853,36.039],[127.801,36.026],[127.788,36.014],[127.765,36.012],[127.759,36.015],[127.761,36.025],[127.748,36.029],[127.74,36.025],[127.732,36.032],[127.728,36.026],[127.717,36.034],[127.702,36.035],[127.695,36.046],[127.697,36.056],[127.689,36.063],[127.671,36.052],[127.673,36.041],[127.665,36.037],[127.645,36.067],[127.625,36.067],[127.619,36.042],[127.63,36.041],[127.638,36.033],[127.628,36.032],[127.624,36.025],[127.61,36.025],[127.617,36.017],[127.615,36.001],[127.591,36.025],[127.576,36.023],[127.567,36.031],[127.532,36.041],[127.539,36.026],[127.54,36.012],[127.532,36.008],[127.536,35.995],[127.508,35.98],[127.495,35.987],[127.488,35.978],[127.468,35.988],[127.456,35.984],[127.445,36.007],[127.437,36.009],[127.435,36.028],[127.401,36.008],[127.378,36.023],[127.373,36.044],[127.36,36.056],[127.365,36.066],[127.359,36.071],[127.36,36.09],[127.348,36.098],[127.353,36.113],[127.338,36.13],[127.323,36.13],[127.314,36.119],[127.302,36.125],[127.294,36.113],[127.275,36.108],[127.252,36.112],[127.246,36.097],[127.257,36.087],[127.254,36.084],[127.243,36.085],[127.226,36.099],[127.205,36.1],[127.199,36.086],[127.182,36.095],[127.169,36.084],[127.149,36.09],[127.137,36.087],[127.134,36.07],[127.123,36.063],[127.102,36.076],[127.09,36.072],[127.061,36.093],[127.061,36.125],[127.05,36.133],[127.05,36.142],[127.024,36.137],[127.016,36.149],[126.986,36.145],[126.957,36.156],[126.923,36.139],[126.905,36.144],[126.887,36.136],[126.873,36.111],[126.874,36.083],[126.866,36.062],[126.81,36.034],[126.749,36.024],[126.729,35.996],[126.68,35.999],[126.686,35.993],[126.676,35.991],[126.678,35.983],[126.521,35.971],[126.528,35.933],[126.534,35.932],[126.538,35.942],[126.595,35.948],[126.615,35.943],[126.612,35.887],[126.651,35.884]]],[[[126.304,35.622],[126.294,35.604],[126.294,35.618],[126.288,35.609],[126.275,35.617],[126.284,35.604],[126.271,35.609],[126.273,35.599],[126.257,35.594],[126.271,35.59],[126.25,35.589],[126.26,35.571],[126.267,35.567],[126.266,35.576],[126.304,35.596],[126.316,35.611],[126.304,35.622]]],[[[126.491,35.847],[126.485,35.845],[126.491,35.838],[126.476,35.822],[126.443,35.831],[126.453,35.818],[126.446,35.819],[126.449,35.807],[126.454,35.806],[126.454,35.816],[126.462,35.819],[126.47,35.811],[126.488,35.816],[126.481,35.819],[126.5,35.841],[126.491,35.847]]],[[[125.984,36.123],[125.967,36.126],[125.973,36.112],[125.984,36.113],[125.984,36.12],[125.992,36.11],[125.995,36.122],[125.984,36.123]]],[[[126.405,35.832],[126.399,35.826],[126.413,35.822],[126.4,35.805],[126.415,35.806],[126.415,35.82],[126.426,35.818],[126.405,35.832]]],[[[126.441,35.806],[126.437,35.811],[126.432,35.802],[126.42,35.81],[126.413,35.798],[126.425,35.793],[126.441,35.806]]],[[[126.557,36.045],[126.544,36.044],[126.541,36.037],[126.556,36.03],[126.557,36.045]]],[[[126.448,35.749],[126.44,35.742],[126.451,35.738],[126.448,35.731],[126.454,35.728],[126.458,35.738],[126.448,35.749]]],[[[126.371,35.821],[126.367,35.809],[126.374,35.8],[126.383,35.803],[126.371,35.821]]],[[[126.387,35.856],[126.359,35.847],[126.38,35.847],[126.387,35.856]]],[[[126.439,36.086],[126.428,36.086],[126.446,36.074],[126.446,36.082],[126.439,36.086]]],[[[126.288,35.634],[126.276,35.635],[126.274,35.627],[126.285,35.633],[126.285,35.622],[126.294,35.628],[126.288,35.634]]],[[[126.126,35.64],[126.119,35.646],[126.111,35.641],[126.124,35.633],[126.13,35.636],[126.126,35.64]]],[[[126.11,35.663],[126.108,35.668],[126.099,35.661],[126.109,35.657],[126.11,35.663]]],[[[126.397,35.819],[126.387,35.819],[126.398,35.807],[126.397,35.819]]],[[[126.341,35.854],[126.338,35.852],[126.354,35.849],[126.341,35.854]]],[[[126.413,35.859],[126.395,35.855],[126.433,35.856],[126.413,35.859]]],[[[126.316,35.859],[126.316,35.854],[126.327,35.853],[126.316,35.859]]],[[[126.531,36.035],[126.53,36.042],[126.523,36.038],[126.531,36.035]]],[[[126.481,35.547],[126.477,35.544],[126.483,35.54],[126.481,35.547]]],[[[126.246,35.577],[126.241,35.573],[126.249,35.574],[126.246,35.577]]]]}}]}